{
	"version": 0.6,
	"generator": "Overpass API 0.7.61.5 4133829e",
	"osm3s": {
		"timestamp_osm_base": "2023-11-06T13:42:30Z",
		"timestamp_areas_base": "2023-11-06T10:36:14Z",
		"copyright": "The data included in this document is from www.openstreetmap.org. The data is made available under ODbL."
	},
	"elements": [
		{
			"type": "area",
			"id": 3600007374,
			"tags": {
				"ISO3166-2": "FR-28",
				"admin_level": "6",
				"border_type": "departement",
				"boundary": "administrative",
				"name": "Eure-et-Loir",
				"name:an": "Eure-y-Loir",
				"name:ar": "أور-ولوار",
				"name:be": "Эр-і-Луар",
				"name:bg": "Йор-е-Лоар",
				"name:ca": "Eure-i-Loir",
				"name:cv": "Эр-тата-Луар",
				"name:es": "Eure-y-Loir",
				"name:fa": "اور-ا-لوآر",
				"name:fr": "Eure-et-Loir",
				"name:frp": "Ere-et-Lêr",
				"name:gl": "Eure-e-Loir",
				"name:he": "אר-ולואר",
				"name:hy": "Էր-և-Լուար",
				"name:ja": "ウール＝エ＝ロワール県",
				"name:ka": "ერი-და-ლუარი",
				"name:kk": "Эр-және-Луар",
				"name:ko": "외르에루아르",
				"name:la": "Ebura-et-Lidericus",
				"name:lt": "Eras-ir-Luara",
				"name:lv": "Ēra-un-Luāra",
				"name:mr": "युर-ए-लुआर",
				"name:oc": "Eure-e-Loir",
				"name:pnb": "ضلع یورے-ات-لویر",
				"name:ru": "Эр-и-Луар",
				"name:sr": "Ер-и-Лоар",
				"name:tg": "Эр-ва-Луар",
				"name:th": "เออเรลัวร์",
				"name:uk": "Ер-і-Луар",
				"name:zh": "厄尔-卢瓦尔省",
				"population": "431575",
				"population:date": "2019",
				"ref": "28",
				"ref:INSEE": "28",
				"ref:nuts": "FRB02",
				"ref:nuts:3": "FRB02",
				"source:name:oc": "ieo-bdtopoc",
				"source:population": "INSEE 2022",
				"type": "boundary",
				"wikidata": "Q3377",
				"wikipedia": "fr:Eure-et-Loir"
			}
		},
		{
			"type": "area",
			"id": 3600007375,
			"tags": {
				"ISO3166-2": "FR-24",
				"admin_level": "6",
				"border_type": "departement",
				"boundary": "administrative",
				"name": "Dordogne",
				"name:ar": "دوردونيي",
				"name:br": "Dordonha",
				"name:ca": "Dordonya",
				"name:fr": "Dordogne",
				"name:oc": "Dordonha",
				"name:ru": "Дордонь",
				"population": "413223",
				"population:date": "2019",
				"ref": "24",
				"ref:INSEE": "24",
				"ref:nuts": "FRI11",
				"ref:nuts:3": "FRI11",
				"source:name:br": "ofis publik ar brezhoneg",
				"source:name:oc": "ieo-bdtopoc",
				"source:population": "INSEE 2022",
				"type": "boundary",
				"wikidata": "Q3357",
				"wikipedia": "fr:Dordogne (département)"
			}
		},
		{
			"type": "area",
			"id": 3600007376,
			"tags": {
				"ISO3166-2": "FR-40",
				"admin_level": "6",
				"border_type": "departement",
				"boundary": "administrative",
				"name": "Landes",
				"name:br": "Lanas",
				"name:el": "Λάνδες",
				"name:es": "Landas",
				"name:eu": "Landak",
				"name:fr": "Landes",
				"name:oc": "Lanas",
				"name:ru": "Ланды",
				"population": "413690",
				"population:date": "2019",
				"ref": "40",
				"ref:INSEE": "40",
				"ref:nuts": "FRI13",
				"ref:nuts:3": "FRI13",
				"source:name:br": "ofis publik ar brezhoneg",
				"source:name:oc": "ieo-bdtopoc",
				"source:population": "INSEE 2022",
				"type": "boundary",
				"wikidata": "Q12563",
				"wikipedia": "fr:Landes (département)"
			}
		},
		{
			"type": "area",
			"id": 3600007377,
			"tags": {
				"ISO3166-2": "FR-86",
				"admin_level": "6",
				"border_type": "departement",
				"boundary": "administrative",
				"name": "Vienne",
				"name:ca": "Viena",
				"name:fr": "Vienne",
				"name:ru": "Вьенна",
				"population": "438435",
				"population:date": "2019",
				"ref": "86",
				"ref:INSEE": "86",
				"ref:nuts": "FRI34",
				"ref:nuts:3": "FRI34",
				"source:population": "INSEE 2022",
				"type": "boundary",
				"wikidata": "Q12804",
				"wikipedia": "fr:Vienne (département)"
			}
		},
		{
			"type": "area",
			"id": 3600007379,
			"tags": {
				"ISO3166-2": "FR-51",
				"admin_level": "6",
				"border_type": "departement",
				"boundary": "administrative",
				"name": "Marne",
				"name:ar": "المارن",
				"name:be": "Марна",
				"name:bg": "Марн",
				"name:br": "Marn",
				"name:cv": "Марна",
				"name:fa": "مرن",
				"name:fr": "Marne",
				"name:hy": "Մարն",
				"name:it": "Marna",
				"name:ja": "マルヌ県",
				"name:ka": "მარნა",
				"name:kk": "Марна",
				"name:la": "Matrona",
				"name:lt": "Marna",
				"name:lv": "Marna",
				"name:mr": "मार्न",
				"name:oc": "Marna",
				"name:pl": "Marna",
				"name:pnb": "ماغنے",
				"name:ru": "Марна",
				"name:sr": "Марна",
				"name:tg": "Марна",
				"name:th": "มาร์น",
				"name:uk": "Марна",
				"name:zh": "马恩省",
				"population": "566855",
				"population:date": "2019",
				"ref": "51",
				"ref:INSEE": "51",
				"ref:nuts": "FRF23",
				"ref:nuts:3": "FRF23",
				"source:name:br": "ofis publik ar brezhoneg",
				"source:population": "INSEE 2022",
				"type": "boundary",
				"wikidata": "Q12594",
				"wikipedia": "fr:Marne (département)"
			}
		},
		{
			"type": "area",
			"id": 3600007380,
			"tags": {
				"ISO3166-2": "FR-04",
				"admin_level": "6",
				"border_type": "departement",
				"boundary": "administrative",
				"name": "Alpes-de-Haute-Provence",
				"name:br": "Alpoù-Provañs-Uhel",
				"name:ca": "Alps de l'Alta Provença",
				"name:el": "Αλπ-ντε-Ωτ-Προβάνς",
				"name:es": "Alpes de Alta Provenza",
				"name:fr": "Alpes-de-Haute-Provence",
				"name:oc": "Aups de Provença Auta",
				"name:ru": "Альпы Верхнего Прованса",
				"population": "164308",
				"population:date": "2019",
				"ref": "04",
				"ref:INSEE": "04",
				"ref:nuts": "FRL01",
				"ref:nuts:3": "FRL01",
				"source:name:br": "ofis publik ar brezhoneg",
				"source:name:oc": "ieo-bdtopoc",
				"source:population": "INSEE 2022",
				"type": "boundary",
				"wikidata": "Q3131",
				"wikipedia": "fr:Alpes-de-Haute-Provence"
			}
		},
		{
			"type": "area",
			"id": 3600007381,
			"tags": {
				"ISO3166-2": "FR-15",
				"admin_level": "6",
				"border_type": "departement",
				"boundary": "administrative",
				"name": "Cantal",
				"name:br": "Cantal",
				"name:el": "Καντάλ",
				"name:fr": "Cantal",
				"name:oc": "Cantau",
				"name:ru": "Канталь",
				"population": "144692",
				"population:date": "2019",
				"ref": "15",
				"ref:INSEE": "15",
				"ref:nuts": "FRK12",
				"ref:nuts:3": "FRK12",
				"source:name:br": "ofis publik ar brezhoneg",
				"source:name:oc": "ieo-bdtopoc",
				"source:population": "INSEE 2022",
				"type": "boundary",
				"wikidata": "Q3259",
				"wikipedia": "fr:Cantal (département)"
			}
		},
		{
			"type": "area",
			"id": 3600007382,
			"tags": {
				"ISO3166-2": "FR-55",
				"admin_level": "6",
				"border_type": "departement",
				"boundary": "administrative",
				"name": "Meuse",
				"name:el": "Μεζ",
				"name:es": "Mosa",
				"name:ru": "Мёз",
				"population": "184083",
				"population:date": "2019",
				"ref": "55",
				"ref:INSEE": "55",
				"ref:nuts": "FRF32",
				"ref:nuts:3": "FRF32",
				"source:population": "INSEE 2022",
				"type": "boundary",
				"wikidata": "Q12631",
				"wikipedia": "fr:Meuse (département)"
			}
		},
		{
			"type": "area",
			"id": 3600007383,
			"tags": {
				"ISO3166-2": "FR-77",
				"admin_level": "6",
				"border_type": "departement",
				"boundary": "administrative",
				"name": "Seine-et-Marne",
				"name:br": "Saena-ha-Marn",
				"name:es": "Sena y Marne",
				"name:lt": "Sena ir Marna",
				"name:ru": "Сена и Марна",
				"population": "1421197",
				"population:date": "2019",
				"ref": "77",
				"ref:INSEE": "77",
				"ref:nuts": "FR102",
				"ref:nuts:3": "FR102",
				"source:name:br": "ofis publik ar brezhoneg",
				"source:population": "INSEE 2022",
				"type": "boundary",
				"wikidata": "Q12753",
				"wikipedia": "fr:Seine-et-Marne"
			}
		},
		{
			"type": "area",
			"id": 3600007384,
			"tags": {
				"ISO3166-2": "FR-88",
				"admin_level": "6",
				"border_type": "departement",
				"boundary": "administrative",
				"name": "Vosges",
				"name:ar": "فوج",
				"name:br": "Vogezioù",
				"name:de": "Vogesen",
				"name:es": "Vosgos",
				"name:fa": "ووژ",
				"name:hu": "Vogézek",
				"name:nl": "Vogezen",
				"name:ru": "Вогезы",
				"name:ur": "ووژ",
				"population": "364499",
				"population:date": "2019",
				"ref": "88",
				"ref:INSEE": "88",
				"ref:nuts": "FRF34",
				"ref:nuts:3": "FRF34",
				"source:name:br": "ofis publik ar brezhoneg",
				"source:population": "INSEE 2022",
				"type": "boundary",
				"wikidata": "Q3105",
				"wikipedia": "fr:Vosges (département)"
			}
		},
		{
			"type": "area",
			"id": 3600007385,
			"tags": {
				"ISO3166-2": "FR-06",
				"admin_level": "6",
				"alt_name:de": "Meeralpen",
				"border_type": "departement",
				"boundary": "administrative",
				"name": "Alpes-Maritimes",
				"name:ar": "الألب البحرية",
				"name:be": "Альпы Прыморскія",
				"name:bg": "Алп Маритим",
				"name:br": "Alpoù-an-Arvor",
				"name:ca": "Alps Marítims",
				"name:de": "Seealpen",
				"name:en": "Maritime Alps",
				"name:es": "Alpes Marítimos",
				"name:eu": "Itsas Alpeak",
				"name:fa": "آلپ-ماریتیم",
				"name:fr": "Alpes-Maritimes",
				"name:frp": "Arpes-Marenes",
				"name:gl": "Alpes Marítimos",
				"name:he": "האלפים הימיים",
				"name:hy": "Ծովափնյա Ալպեր",
				"name:it": "Alpi Marittime",
				"name:ja": "アルプ＝マリティーム県",
				"name:ka": "ზღვისპირა ალპები",
				"name:kk": "Альпі-Маритим",
				"name:ko": "알프마리팀",
				"name:la": "Alpes Maritimae",
				"name:lij": "Alpi do Mâ",
				"name:lt": "Pajūrio Alpės",
				"name:lv": "Piejūras Alpi",
				"name:mr": "आल्प-मरितीम",
				"name:oc": "Aups Maritims",
				"name:pl": "Alpy Nadmorskie",
				"name:pms": "Alp Marìtime",
				"name:pt": "Alpes Marítimos",
				"name:ru": "Приморские Альпы",
				"name:sr": "Приморски Алпи",
				"name:tg": "Алп Приморские",
				"name:th": "จังหวัดอาลป์-มารีตีม",
				"name:uk": "Приморські Альпи",
				"name:zh": "滨海阿尔卑斯省",
				"population": "1094283",
				"population:date": "2019",
				"ref": "06",
				"ref:INSEE": "06",
				"ref:nuts": "FRL03",
				"ref:nuts:3": "FRL03",
				"source:name:br": "ofis publik ar brezhoneg",
				"source:name:oc": "ieo-bdtopoc",
				"source:population": "INSEE 2022",
				"type": "boundary",
				"wikidata": "Q3139",
				"wikipedia": "fr:Alpes-Maritimes"
			}
		},
		{
			"type": "area",
			"id": 3600007387,
			"tags": {
				"ISO3166-2": "FR-01",
				"admin_level": "6",
				"border_type": "departement",
				"boundary": "administrative",
				"name": "Ain",
				"name:br": "Ain",
				"name:el": "Αιν (Ωβέρνη-Ρον-Αλπ)",
				"name:fr": "Ain",
				"name:ru": "Эн",
				"population": "652432",
				"population:date": "2019",
				"ref": "01",
				"ref:INSEE": "01",
				"ref:nuts": "FRK21",
				"ref:nuts:3": "FRK21",
				"source:name:br": "ofis publik ar brezhoneg",
				"source:population": "INSEE 2022",
				"type": "boundary",
				"wikidata": "Q3083",
				"wikipedia": "fr:Ain (département)"
			}
		},
		{
			"type": "area",
			"id": 3600007388,
			"tags": {
				"ISO3166-2": "FR-82",
				"admin_level": "6",
				"border_type": "departement",
				"boundary": "administrative",
				"name": "Tarn-et-Garonne",
				"name:ca": "Tarn i Garona",
				"name:el": "Ταρν-ε-Γκαρόν",
				"name:es": "Tarn y Garona",
				"name:eu": "Tarn eta Garona",
				"name:fr": "Tarn-et-Garonne",
				"name:oc": "Tarn e Garona",
				"name:ru": "Тарн и Гаронна",
				"population": "260669",
				"population:date": "2019",
				"ref": "82",
				"ref:INSEE": "82",
				"ref:nuts": "FRJ28",
				"ref:nuts:3": "FRJ28",
				"source:name:oc": "ieo-bdtopoc",
				"source:population": "INSEE 2022",
				"start_date": "1808-11-21",
				"type": "boundary",
				"wikidata": "Q12779",
				"wikipedia": "fr:Tarn-et-Garonne"
			}
		},
		{
			"type": "area",
			"id": 3600007389,
			"tags": {
				"ISO3166-2": "FR-93",
				"admin_level": "6",
				"border_type": "departement",
				"boundary": "administrative",
				"name": "Seine-Saint-Denis",
				"name:es": "Sena-Saint Denis",
				"name:fr": "Seine-Saint-Denis",
				"name:ru": "Сена-Сен-Дени",
				"population": "1644903",
				"population:date": "2019",
				"ref": "93",
				"ref:INSEE": "93",
				"ref:nuts": "FR106",
				"ref:nuts:3": "FR106",
				"source:population": "INSEE 2022",
				"type": "boundary",
				"wikidata": "Q12761",
				"wikipedia": "fr:Seine-Saint-Denis"
			}
		},
		{
			"type": "area",
			"id": 3600007390,
			"tags": {
				"ISO3166-2": "FR-83",
				"admin_level": "6",
				"border_type": "departement",
				"boundary": "administrative",
				"name": "Var",
				"name:ar": "فار",
				"name:br": "Var",
				"name:lt": "Varas",
				"name:oc": "Var",
				"name:ru": "Вар",
				"population": "1076711",
				"population:date": "2019",
				"ref": "83",
				"ref:INSEE": "83",
				"ref:nuts": "FRL05",
				"ref:nuts:3": "FRL05",
				"source:name:br": "ofis publik ar brezhoneg",
				"source:name:oc": "ieo-bdtopoc",
				"source:population": "INSEE 2022",
				"type": "boundary",
				"wikidata": "Q12789",
				"wikipedia": "fr:Var (département)"
			}
		},
		{
			"type": "area",
			"id": 3600007392,
			"tags": {
				"ISO3166-2": "FR-89",
				"admin_level": "6",
				"border_type": "departement",
				"boundary": "administrative",
				"name": "Yonne",
				"name:ar": "يون",
				"name:be": "Іона",
				"name:bg": "Йон",
				"name:cv": "Йонна",
				"name:el": "Ιόν",
				"name:fa": "یون",
				"name:fr": "Yonne",
				"name:frp": "Yona",
				"name:he": "יון",
				"name:hy": "Յոն",
				"name:ja": "ヨンヌ県",
				"name:ka": "იონა",
				"name:kk": "Йонна",
				"name:ko": "욘",
				"name:la": "Icauna",
				"name:lt": "Jonas",
				"name:lv": "Jona",
				"name:mr": "योन",
				"name:oc": "Iona",
				"name:pnb": "جون",
				"name:ru": "Йонна",
				"name:sr": "Јон",
				"name:tg": "Йонна",
				"name:th": "อียอน",
				"name:uk": "Йонна",
				"name:ur": "یوننے",
				"name:zh": "约讷省",
				"population": "335707",
				"population:date": "2019",
				"ref": "89",
				"ref:INSEE": "89",
				"ref:nuts": "FRC14",
				"ref:nuts:3": "FRC14",
				"source:name:oc": "ieo-bdtopoc",
				"source:population": "INSEE 2022",
				"type": "boundary",
				"wikidata": "Q12816",
				"wikipedia": "fr:Yonne (département)"
			}
		},
		{
			"type": "area",
			"id": 3600007393,
			"tags": {
				"ISO3166-2": "FR-13",
				"admin_level": "6",
				"alt_name": "Bocas dau Ròse",
				"border_type": "departement",
				"boundary": "administrative",
				"name": "Bouches-du-Rhône",
				"name:ar": "بوش دو رون",
				"name:br": "Genoù-ar-Ron",
				"name:ca": "Boques del Roine",
				"name:el": "Μπους-ντυ-Ρον",
				"name:es": "Bocas del Ródano",
				"name:fa": "بوش-دو-رون",
				"name:fr": "Bouches-du-Rhône",
				"name:oc": "Bocas dau Ròse",
				"name:pnb": "بوچے دو رہون",
				"name:ru": "Буш-дю-Рон",
				"name:ur": "بوش-دو-رون",
				"population": "2043110",
				"population:date": "2019",
				"ref": "13",
				"ref:INSEE": "13",
				"ref:nuts": "FRL04",
				"ref:nuts:3": "FRL04",
				"source:name:br": "ofis publik ar brezhoneg",
				"source:name:oc": "ieo-bdtopoc",
				"source:population": "INSEE 2022",
				"type": "boundary",
				"wikidata": "Q3240",
				"wikipedia": "fr:Bouches-du-Rhône"
			}
		},
		{
			"type": "area",
			"id": 3600007394,
			"tags": {
				"ISO3166-2": "FR-62",
				"admin_level": "6",
				"border_type": "departement",
				"boundary": "administrative",
				"name": "Pas-de-Calais",
				"name:ar": "باد كاليه",
				"name:es": "Paso de Calais",
				"name:fa": "پا-دو-کاله",
				"name:la": "Fretum Calisii",
				"name:pcd": "Pas-d'Caleus",
				"name:ru": "Па-де-Кале",
				"name:ur": "پا-دو-کالے",
				"name:vls": "Nauw van Kales",
				"population": "1465278",
				"population:date": "2019",
				"ref": "62",
				"ref:INSEE": "62",
				"ref:nuts": "FRE12",
				"ref:nuts:3": "FRE12",
				"source:population": "INSEE 2022",
				"type": "boundary",
				"wikidata": "Q12689",
				"wikipedia": "fr:Pas-de-Calais"
			}
		},
		{
			"type": "area",
			"id": 3600007395,
			"tags": {
				"ISO3166-2": "FR-08",
				"admin_level": "6",
				"border_type": "departement",
				"boundary": "administrative",
				"name": "Ardennes",
				"name:an": "Ardenas",
				"name:ar": "الأردين",
				"name:be": "Ардэны",
				"name:bg": "Арден",
				"name:ca": "Ardenes",
				"name:cs": "Ardensko",
				"name:cv": "Арденн",
				"name:es": "Ardenas",
				"name:eu": "Ardenak",
				"name:fa": "آردن",
				"name:fr": "Ardennes",
				"name:frp": "Ardenes",
				"name:gl": "Ardenas",
				"name:he": "ארדן",
				"name:hy": "Արդեններ",
				"name:ja": "アルデンヌ",
				"name:ka": "ლუარე",
				"name:kk": "Арденне",
				"name:ko": "아르덴",
				"name:la": "Arduenna",
				"name:lt": "Ardėnai",
				"name:lv": "Ardēni",
				"name:mr": "अ‍ॅर्देन",
				"name:nl": "Ardennen",
				"name:oc": "Ardenas",
				"name:pl": "Ardeny",
				"name:pms": "Ardënne",
				"name:pnb": "ارڈین",
				"name:pt": "Ardenas",
				"name:ru": "Арденны",
				"name:sr": "Ардени",
				"name:tg": "Арденн",
				"name:th": "อาร์แดน",
				"name:uk": "Арденни",
				"name:wa": "Årdenes",
				"name:zh": "阿登省",
				"population": "270582",
				"population:date": "2019",
				"ref": "08",
				"ref:INSEE": "08",
				"ref:nuts": "FRF21",
				"ref:nuts:3": "FRF21",
				"source:population": "INSEE 2022",
				"type": "boundary",
				"wikidata": "Q3164",
				"wikipedia": "fr:Ardennes (département)"
			}
		},
		{
			"type": "area",
			"id": 3600007396,
			"tags": {
				"ISO3166-2": "FR-52",
				"admin_level": "6",
				"border_type": "departement",
				"boundary": "administrative",
				"name": "Haute-Marne",
				"name:el": "Ωτ-Μαρν",
				"name:es": "Alto Marne",
				"name:ru": "Верхняя Марна",
				"population": "172512",
				"population:date": "2019",
				"ref": "52",
				"ref:INSEE": "52",
				"ref:nuts": "FRF24",
				"ref:nuts:3": "FRF24",
				"source:population": "INSEE 2022",
				"type": "boundary",
				"wikidata": "Q12607",
				"wikipedia": "fr:Haute-Marne"
			}
		},
		{
			"type": "area",
			"id": 3600007397,
			"tags": {
				"ISO3166-2": "FR-71",
				"admin_level": "6",
				"border_type": "departement",
				"boundary": "administrative",
				"name": "Saône-et-Loire",
				"name:br": "Saône-ha-Liger",
				"name:es": "Saona y Loira",
				"name:ja": "ソーヌ＝エ＝ロワール県",
				"name:ru": "Сона и Луара",
				"population": "551493",
				"population:date": "2019",
				"ref": "71",
				"ref:INSEE": "71",
				"ref:nuts": "FRC13",
				"ref:nuts:3": "FRC13",
				"source:name:br": "ofis publik ar brezhoneg",
				"source:population": "INSEE 2022",
				"type": "boundary",
				"wikidata": "Q12736",
				"wikipedia": "fr:Saône-et-Loire"
			}
		},
		{
			"type": "area",
			"id": 3600007398,
			"tags": {
				"ISO3166-2": "FR-22",
				"admin_level": "6",
				"border_type": "departement",
				"boundary": "administrative",
				"name": "Côtes-d'Armor",
				"name:br": "Aodoù-an-Arvor",
				"name:ca": "Costes del Nord",
				"name:el": "Κοτ-ντ'Αρμόρ",
				"name:fr": "Côtes-d'Armor",
				"name:ru": "Кот-д'Армор",
				"old_name:1790-1990": "Côtes-du-Nord",
				"population": "600582",
				"population:date": "2019",
				"ref": "22",
				"ref:INSEE": "22",
				"ref:nuts": "FRH01",
				"ref:nuts:3": "FRH01",
				"source:old_name:1790-1990": "Wikipedia",
				"source:population": "INSEE 2022",
				"type": "boundary",
				"wikidata": "Q3349",
				"wikipedia": "fr:Côtes-d'Armor"
			}
		},
		{
			"type": "area",
			"id": 3600007399,
			"tags": {
				"ISO3166-2": "FR-41",
				"admin_level": "6",
				"border_type": "departement",
				"boundary": "administrative",
				"name": "Loir-et-Cher",
				"name:es": "Loir y Cher",
				"name:ru": "Луар и Шер",
				"population": "329470",
				"population:date": "2019",
				"ref": "41",
				"ref:INSEE": "41",
				"ref:nuts": "FRB05",
				"ref:nuts:3": "FRB05",
				"source:population": "INSEE 2022",
				"type": "boundary",
				"wikidata": "Q12564",
				"wikipedia": "fr:Loir-et-Cher"
			}
		},
		{
			"type": "area",
			"id": 3600007400,
			"tags": {
				"ISO3166-2": "FR-59",
				"admin_level": "6",
				"border_type": "departement",
				"boundary": "administrative",
				"name": "Nord",
				"name:br": "Norzh-Pas-de-Calais",
				"name:es": "Norte",
				"name:nl": "Noorderdepartement",
				"name:pcd": "Nord",
				"name:ru": "Нор",
				"name:vls": "Noorderdepartement",
				"official_name": "Département du Nord",
				"official_name:fr": "Département du Nord",
				"official_name:pcd": "Départémint dech Nord",
				"population": "2608346",
				"population:date": "2019",
				"ref": "59",
				"ref:INSEE": "59",
				"ref:nuts": "FRE11",
				"ref:nuts:3": "FRE11",
				"source:name:br": "ofis publik ar brezhoneg",
				"source:population": "INSEE 2022",
				"type": "boundary",
				"wikidata": "Q12661",
				"wikipedia": "fr:Nord (département français)"
			}
		},
		{
			"type": "area",
			"id": 3600007401,
			"tags": {
				"ISO3166-2": "FR-91",
				"admin_level": "6",
				"border_type": "departement",
				"boundary": "administrative",
				"name": "Essonne",
				"name:el": "Εσσόν",
				"name:fr": "Essonne",
				"name:ru": "Эсон",
				"population": "1301659",
				"population:date": "2019",
				"ref": "91",
				"ref:INSEE": "91",
				"ref:nuts": "FR104",
				"ref:nuts:3": "FR104",
				"source:population": "INSEE 2022",
				"type": "boundary",
				"wikidata": "Q3368",
				"wikipedia": "fr:Essonne (département)"
			}
		},
		{
			"type": "area",
			"id": 3600007402,
			"tags": {
				"ISO3166-2": "FR-85",
				"admin_level": "6",
				"border_type": "departement",
				"boundary": "administrative",
				"name": "Vendée",
				"name:el": "Βαντέ",
				"name:es": "Vandea",
				"name:ru": "Вандея",
				"population": "685442",
				"population:date": "2019",
				"ref": "85",
				"ref:INSEE": "85",
				"ref:nuts": "FRG05",
				"ref:nuts:3": "FRG05",
				"source:population": "INSEE 2022",
				"type": "boundary",
				"wikidata": "Q12798",
				"wikipedia": "fr:Vendée (département)"
			}
		},
		{
			"type": "area",
			"id": 3600007403,
			"tags": {
				"ISO3166-2": "FR-68",
				"admin_level": "6",
				"border_type": "departement",
				"boundary": "administrative",
				"name": "Haut-Rhin",
				"name:ar": "الراين الأعلى",
				"name:br": "Roen-Uhel",
				"name:de": "Oberelsass",
				"name:es": "Alto Rin",
				"name:fr": "Haut-Rhin",
				"name:gsw": "Oww'relsass",
				"name:ru": "Верхний Рейн",
				"population": "767086",
				"population:date": "2019",
				"ref": "68",
				"ref:INSEE": "68",
				"ref:nuts": "FRF12",
				"ref:nuts:3": "FRF12",
				"source:name:br": "ofis publik ar brezhoneg",
				"source:population": "INSEE 2022",
				"type": "boundary",
				"wikidata": "Q12722",
				"wikipedia": "fr:Haut-Rhin"
			}
		},
		{
			"type": "area",
			"id": 3600007404,
			"tags": {
				"ISO3166-2": "FR-50",
				"admin_level": "6",
				"border_type": "departement",
				"boundary": "administrative",
				"name": "Manche",
				"name:br": "La Manche",
				"name:es": "Mancha",
				"name:fr": "Manche",
				"name:ru": "Манш",
				"population": "495045",
				"population:date": "2019",
				"ref": "50",
				"ref:INSEE": "50",
				"ref:nuts": "FRD12",
				"ref:nuts:3": "FRD12",
				"source:name:br": "ofis publik ar brezhoneg",
				"source:population": "INSEE 2022",
				"type": "boundary",
				"wikidata": "Q12589",
				"wikipedia": "fr:Manche (département)"
			}
		},
		{
			"type": "area",
			"id": 3600007405,
			"tags": {
				"ISO3166-2": "FR-33",
				"admin_level": "6",
				"border_type": "departement",
				"boundary": "administrative",
				"name": "Gironde",
				"name:ar": "جيروند",
				"name:az": "Jironda",
				"name:be": "Жыронда",
				"name:br": "Gironda",
				"name:ca": "Gironda",
				"name:cv": "Жиронда",
				"name:es": "Gironda",
				"name:eu": "Gironda",
				"name:fa": "ژیروند",
				"name:fr": "Gironde",
				"name:frp": "G·ironde",
				"name:gl": "Xironda",
				"name:he": "ז'ירונד",
				"name:hy": "Ժիրոնդ",
				"name:it": "Gironda",
				"name:ja": "ジロンド県",
				"name:ka": "ჟირონდა",
				"name:kk": "Жиронда",
				"name:ko": "지롱드",
				"name:la": "Girundia",
				"name:lt": "Žironda",
				"name:lv": "Žironda",
				"name:mr": "जिरोंद",
				"name:oc": "Gironda",
				"name:pl": "Żyronda",
				"name:pms": "Gironda",
				"name:pnb": "یروند",
				"name:pt": "Gironda",
				"name:ru": "Жиронда",
				"name:sr": "Жиронда",
				"name:tg": "Жиронда",
				"name:th": "ฌีรงด์",
				"name:tl": "Gironda",
				"name:uk": "Жиронда",
				"name:vec": "Zironda",
				"name:zh": "吉倫特省",
				"population": "1623749",
				"population:date": "2019",
				"ref": "33",
				"ref:INSEE": "33",
				"ref:nuts": "FRI12",
				"ref:nuts:3": "FRI12",
				"source:name:br": "ofis publik ar brezhoneg",
				"source:name:oc": "ieo-bdtopoc",
				"source:population": "INSEE 2022",
				"type": "boundary",
				"wikidata": "Q12526",
				"wikipedia": "fr:Gironde (département)"
			}
		},
		{
			"type": "area",
			"id": 3600007406,
			"tags": {
				"ISO3166-2": "FR-63",
				"admin_level": "6",
				"border_type": "departement",
				"boundary": "administrative",
				"name": "Puy-de-Dôme",
				"name:ar": "بوي-دي-دوم",
				"name:bg": "Пюі-дэ-Дом",
				"name:br": "Puèi Domat",
				"name:ca": "Puèi-Domat",
				"name:cv": "Пюи-де-Дом",
				"name:fa": "پوی-دو-دم",
				"name:fr": "Puy-de-Dôme",
				"name:frp": "Pué-de-Dôma",
				"name:hy": "Պյուի-դը-Դոմ",
				"name:ja": "ピュイ＝ド＝ドーム県",
				"name:ka": "პუი-დე-დომი",
				"name:kk": "Пюи-де-Дом",
				"name:ko": "퓌드돔",
				"name:la": "Podium-Dumiatis",
				"name:lt": "Piui-de-Domas",
				"name:lv": "Pijdedoma",
				"name:mr": "पुय-दे-दोम",
				"name:oc": "Puèi Domat",
				"name:pnb": "ضلع پائی-ڈی-ڈوم",
				"name:ru": "Пюи-де-Дом",
				"name:sr": "Пиј-де-Дом",
				"name:tg": "Пюи-де-Дом",
				"name:th": "ปุย-เดอ-โดม",
				"name:uk": "Пюї-де-Дом",
				"name:zh": "多姆山省",
				"population": "662152",
				"population:date": "2019",
				"ref": "63",
				"ref:INSEE": "63",
				"ref:nuts": "FRK14",
				"ref:nuts:3": "FRK14",
				"source:name:br": "ofis publik ar brezhoneg",
				"source:name:oc": "ieo-bdtopoc",
				"source:population": "INSEE 2022",
				"type": "boundary",
				"website": "https://www.puy-de-dome.fr/",
				"wikidata": "Q12694",
				"wikipedia": "fr:Puy-de-Dôme"
			}
		},
		{
			"type": "area",
			"id": 3600007407,
			"tags": {
				"ISO3166-2": "FR-74",
				"admin_level": "6",
				"border_type": "departement",
				"boundary": "administrative",
				"name": "Haute-Savoie",
				"name:br": "Savoia-Uhel",
				"name:ca": "Alta Savoia",
				"name:de": "Hochsavoyen",
				"name:el": "Άνω Σαβοΐα",
				"name:en": "Upper Savoy",
				"name:es": "Alta Saboya",
				"name:fr": "Haute-Savoie",
				"name:it": "Alta Savoia",
				"name:ru": "Верхняя Савойя",
				"population": "826094",
				"population:date": "2019",
				"ref": "74",
				"ref:INSEE": "74",
				"ref:nuts": "FRK28",
				"ref:nuts:3": "FRK28",
				"source:name:br": "ofis publik ar brezhoneg",
				"source:population": "INSEE 2022",
				"type": "boundary",
				"wikidata": "Q12751",
				"wikipedia": "fr:Haute-Savoie"
			}
		},
		{
			"type": "area",
			"id": 3600007408,
			"tags": {
				"ISO3166-2": "FR-37",
				"admin_level": "6",
				"border_type": "departement",
				"boundary": "administrative",
				"name": "Indre-et-Loire",
				"name:ar": "أندر ولوار",
				"name:br": "Indre-ha-Liger",
				"name:ca": "Indre i Loira",
				"name:es": "Indre y Loira",
				"name:ru": "Эндр и Луара",
				"population": "610079",
				"population:date": "2019",
				"ref": "37",
				"ref:INSEE": "37",
				"ref:nuts": "FRB04",
				"ref:nuts:3": "FRB04",
				"source:name:br": "ofis publik ar brezhoneg",
				"source:population": "INSEE 2022",
				"type": "boundary",
				"wikidata": "Q12556",
				"wikipedia": "fr:Indre-et-Loire"
			}
		},
		{
			"type": "area",
			"id": 3600007409,
			"tags": {
				"ISO3166-2": "FR-49",
				"admin_level": "6",
				"border_type": "departement",
				"boundary": "administrative",
				"name": "Maine-et-Loire",
				"name:an": "Maine-y-Loira",
				"name:ar": "ماين-ولوار",
				"name:be": "Мен-і-Луара",
				"name:bg": "Мен-е-Лоар",
				"name:br": "Maine-ha-Liger",
				"name:ca": "Maine i Loira",
				"name:co": "Maine-é-Loira",
				"name:cv": "Мэн-тата-Луара",
				"name:el": "Μαιν-ε-Λουάρ",
				"name:es": "Maine-y-Loira",
				"name:fa": "من-ا-لوآر",
				"name:fr": "Maine-et-Loire",
				"name:frp": "Mêne-et-Lêre",
				"name:gl": "Maine-e-Loira",
				"name:he": "מן-ולואר",
				"name:ht": "Maine-ak-Lwar",
				"name:hy": "Մեն-և-Լուար",
				"name:ja": "メーヌ＝エ＝ロワール県",
				"name:ka": "მენი-და-ლუარა",
				"name:kk": "Мен-және-Луара",
				"name:ko": "멘에루아르",
				"name:la": "Meduana-et-Liger",
				"name:lt": "Menas-ir-Luara",
				"name:lv": "Mēna-un-Luāra",
				"name:mr": "मेन-एत-लावार",
				"name:oc": "Maine-e-Léger",
				"name:pl": "Maine-i-Loara",
				"name:pms": "Maine-e-Lòira",
				"name:pnb": "مین-اے-لوار",
				"name:ru": "Мен-и-Луара",
				"name:sr": "Мен-и-Лоара",
				"name:tg": "Мэн-ва-Луара",
				"name:th": "แมเนลัวร์",
				"name:uk": "Мен-і-Луара",
				"name:zh": "曼恩-卢瓦尔省",
				"population": "818273",
				"population:date": "2019",
				"ref": "49",
				"ref:INSEE": "49",
				"ref:nuts": "FRG02",
				"ref:nuts:3": "FRG02",
				"source:name:oc": "ieo-bdtopoc",
				"source:population": "INSEE 2022",
				"type": "boundary",
				"website": "http://www.cg49.fr/",
				"wikidata": "Q12584",
				"wikipedia": "fr:Maine-et-Loire"
			}
		},
		{
			"type": "area",
			"id": 3600007410,
			"tags": {
				"ISO3166-2": "FR-90",
				"admin_level": "6",
				"border_type": "departement",
				"boundary": "administrative",
				"name": "Territoire-de-Belfort",
				"name:br": "Tiriad Belfort",
				"name:el": "Έδαφος του Μπελφόρ",
				"name:es": "Territorio de Belfort",
				"name:ja": "テリトワール・ド・ベルフォール県",
				"name:ru": "Территория Бельфор",
				"population": "141318",
				"population:date": "2019",
				"ref": "90",
				"ref:INSEE": "90",
				"ref:nuts": "FRC24",
				"ref:nuts:3": "FRC24",
				"source:name:br": "ofis publik ar brezhoneg",
				"source:population": "INSEE 2022",
				"type": "boundary",
				"wikidata": "Q12782",
				"wikipedia": "fr:Territoire de Belfort"
			}
		},
		{
			"type": "area",
			"id": 3600007411,
			"tags": {
				"ISO3166-2": "FR-02",
				"admin_level": "6",
				"border_type": "departement",
				"boundary": "administrative",
				"name": "Aisne",
				"name:el": "Αιν (Ω-ντε-Φρανς)",
				"name:fr": "Aisne",
				"name:ru": "Эна",
				"population": "531345",
				"population:date": "2019",
				"ref": "02",
				"ref:INSEE": "02",
				"ref:nuts": "FRE21",
				"ref:nuts:3": "FRE21",
				"source:population": "INSEE 2022",
				"type": "boundary",
				"wikidata": "Q3093",
				"wikipedia": "fr:Aisne (département)"
			}
		},
		{
			"type": "area",
			"id": 3600007413,
			"tags": {
				"ISO3166-2": "FR-31",
				"admin_level": "6",
				"border_type": "departement",
				"boundary": "administrative",
				"description": "Pas de Trait d'union dans les autres langues",
				"name": "Haute-Garonne",
				"name:an": "Alta Garona",
				"name:ar": "غارون-العليا",
				"name:be": "Гарона Верхняя",
				"name:be-tarask": "Верхняя Гарона",
				"name:bg": "От-Гарон",
				"name:br": "Garona Uhel",
				"name:ca": "Alta Garona",
				"name:cv": "Тури Гаронна",
				"name:el": "Άνω Γαρούνας",
				"name:es": "Alto Garona",
				"name:eu": "Garona Garaia",
				"name:fa": "اوت-گارون",
				"name:fr": "Haute-Garonne",
				"name:frp": "Hôta Garona",
				"name:gl": "Alta Garona",
				"name:hak": "Sông Garonne-sén",
				"name:hy": "Վերին-Գարոն",
				"name:it": "Alta-Garonna",
				"name:ja": "オート＝ガロンヌ県",
				"name:ka": "ზემო-გარონა",
				"name:kk": "Жоғарғы Гаронна",
				"name:ko": "오트가론",
				"name:la": "Garunna Superior",
				"name:lt": "Aukštutinė Garona",
				"name:lv": "Augšgaronna",
				"name:mr": "ऑत-गारोन",
				"name:oc": "Nauta Garona",
				"name:pl": "Górna Garonna",
				"name:pms": "Àuta Garona",
				"name:pnb": "ضلع-اوت-گارون",
				"name:pt": "Alto Garona",
				"name:ru": "Верхняя Гаронна",
				"name:sr": "Горња Гарона",
				"name:tg": "Гароннаи Болоӣ",
				"name:th": "จังหวัดโอต การอน",
				"name:uk": "Верхня Гаронна",
				"name:vec": "Alta Garona",
				"name:zh": "上加龙省",
				"population": "1400039",
				"population:date": "2019",
				"ref": "31",
				"ref:INSEE": "31",
				"ref:nuts": "FRJ23",
				"ref:nuts:3": "FRJ23",
				"source:name:oc": "Centre de Ressources Occitanes et Méridionales",
				"source:population": "INSEE 2022",
				"start_date": "1790-03-04",
				"type": "boundary",
				"wikidata": "Q12538",
				"wikipedia": "fr:Haute-Garonne"
			}
		},
		{
			"type": "area",
			"id": 3600007415,
			"tags": {
				"ISO3166-2": "FR-67",
				"admin_level": "6",
				"border_type": "departement",
				"boundary": "administrative",
				"name": "Bas-Rhin",
				"name:an": "Baixo-Rin",
				"name:ar": "الراين-الأسفل",
				"name:ast": "Baxo-Rin",
				"name:be": "Рэйн-Ніжні",
				"name:bg": "Ба-Рен",
				"name:br": "Roen-Izel",
				"name:ca": "Baix-Rin",
				"name:cv": "Анатри-Рейн",
				"name:de": "Unterelsass",
				"name:es": "Bajo-Rin",
				"name:fa": "با-رن",
				"name:fr": "Bas-Rhin",
				"name:frp": "Bâs-Rin",
				"name:gl": "Baixo-Rin",
				"name:gsw": "Unt'relsass",
				"name:hak": "Hâ-Rhin",
				"name:he": "ריין-תחתון",
				"name:hy": "Ներքին-Ռեն",
				"name:it": "Basso-Reno",
				"name:ja": "バ＝ラン県",
				"name:ka": "ქვემო-რეინი",
				"name:kk": "Төменгі-Рейн",
				"name:ko": "바랭",
				"name:la": "Rhenus-Inferior",
				"name:lad": "Bajo-Rin",
				"name:lt": "Žemutinis-Reinas",
				"name:lv": "Lejasreina",
				"name:mk": "Долна-Рајна",
				"name:mr": "बास-ऱ्हिन",
				"name:pl": "Dolny-Ren",
				"name:pms": "Bass-Ren",
				"name:pnb": "بیس-رہائن",
				"name:pt": "Baixo-Reno",
				"name:ru": "Нижний-Рейн",
				"name:sr": "Доња-Рајна",
				"name:tg": "Ба-Рейн",
				"name:th": "บา-แร็ง",
				"name:uk": "Нижній-Рейн",
				"name:zh": "下莱茵省",
				"population": "1140057",
				"population:date": "2019",
				"ref": "67",
				"ref:INSEE": "67",
				"ref:nuts": "FRF11",
				"ref:nuts:3": "FRF11",
				"source:name:br": "ofis publik ar brezhoneg",
				"source:population": "INSEE 2022",
				"type": "boundary",
				"website": "https://www.bas-rhin.fr/",
				"wikidata": "Q12717",
				"wikipedia": "fr:Bas-Rhin"
			}
		},
		{
			"type": "area",
			"id": 3600007417,
			"tags": {
				"ISO3166-2": "FR-36",
				"admin_level": "6",
				"border_type": "departement",
				"boundary": "administrative",
				"name": "Indre",
				"name:fr": "Indre",
				"name:ru": "Эндр",
				"population": "219316",
				"population:date": "2019",
				"ref": "36",
				"ref:INSEE": "36",
				"ref:nuts": "FRB03",
				"ref:nuts:3": "FRB03",
				"source:population": "INSEE 2022",
				"type": "boundary",
				"wikidata": "Q12553",
				"wikipedia": "fr:Indre (département)"
			}
		},
		{
			"type": "area",
			"id": 3600007418,
			"tags": {
				"ISO3166-2": "FR-87",
				"admin_level": "6",
				"border_type": "departement",
				"boundary": "administrative",
				"name": "Haute-Vienne",
				"name:br": "Nauta Vinhana",
				"name:es": "Alto Vienne",
				"name:eu": "Vienne Garaia",
				"name:fr": "Haute-Vienne",
				"name:oc": "Nauta Vinhana",
				"name:ru": "Верхняя Вьенна",
				"population": "372359",
				"population:date": "2019",
				"ref": "87",
				"ref:INSEE": "87",
				"ref:nuts": "FRI23",
				"ref:nuts:3": "FRI23",
				"source:name:br": "ofis publik ar brezhoneg",
				"source:name:oc": "ieo-bdtopoc",
				"source:population": "INSEE 2022",
				"type": "boundary",
				"wikidata": "Q12808",
				"wikipedia": "fr:Haute-Vienne"
			}
		},
		{
			"type": "area",
			"id": 3600007419,
			"tags": {
				"ISO3166-2": "FR-61",
				"admin_level": "6",
				"border_type": "departement",
				"boundary": "administrative",
				"name": "Orne",
				"name:ar": "أورن",
				"name:az-Arab": "اورن",
				"name:azb": "اورن",
				"name:de": "Orne",
				"name:el": "Ορν",
				"name:es": "Orne",
				"name:fa": "اورن",
				"name:fr": "Orne",
				"name:ru": "Орн",
				"name:ur": "اورن",
				"population": "279942",
				"population:date": "2019",
				"ref": "61",
				"ref:INSEE": "61",
				"ref:nuts": "FRD13",
				"ref:nuts:3": "FRD13",
				"source:population": "INSEE 2022",
				"type": "boundary",
				"wikidata": "Q12679",
				"wikipedia": "fr:Orne (département)"
			}
		},
		{
			"type": "area",
			"id": 3600007420,
			"tags": {
				"ISO3166-2": "FR-42",
				"admin_level": "6",
				"border_type": "departement",
				"boundary": "administrative",
				"name": "Loire",
				"name:ar": "لوار",
				"name:br": "Liger",
				"name:es": "Loira",
				"name:oc": "Léger",
				"name:ru": "Луара",
				"population": "765634",
				"population:date": "2019",
				"ref": "42",
				"ref:INSEE": "42",
				"ref:nuts": "FRK25",
				"ref:nuts:3": "FRK25",
				"source:name:br": "ofis publik ar brezhoneg",
				"source:name:oc": "ieo-bdtopoc",
				"source:population": "INSEE 2022",
				"type": "boundary",
				"wikidata": "Q12569",
				"wikipedia": "fr:Loire (département)"
			}
		},
		{
			"type": "area",
			"id": 3600007421,
			"tags": {
				"ISO3166-2": "FR-48",
				"admin_level": "6",
				"border_type": "departement",
				"boundary": "administrative",
				"name": "Lozère",
				"name:ca": "Losera",
				"name:el": "Λοζέρ",
				"name:fr": "Lozère",
				"name:oc": "Losera",
				"name:ru": "Лозер",
				"population": "76604",
				"population:date": "2019",
				"ref": "48",
				"ref:INSEE": "48",
				"ref:nuts": "FRJ14",
				"ref:nuts:3": "FRJ14",
				"source:name:oc": "ieo-bdtopoc",
				"source:population": "INSEE 2022",
				"type": "boundary",
				"wikidata": "Q12580",
				"wikipedia": "fr:Lozère (département)"
			}
		},
		{
			"type": "area",
			"id": 3600007422,
			"tags": {
				"ISO3166-2": "FR-32",
				"admin_level": "6",
				"border_type": "departement",
				"boundary": "administrative",
				"name": "Gers",
				"name:fr": "Gers",
				"name:oc": "Gers",
				"name:ru": "Жер",
				"population": "191377",
				"population:date": "2019",
				"ref": "32",
				"ref:INSEE": "32",
				"ref:nuts": "FRJ24",
				"ref:nuts:3": "FRJ24",
				"source:name:oc": "ieo-bdtopoc",
				"source:population": "INSEE 2022",
				"type": "boundary",
				"wikidata": "Q12517",
				"wikipedia": "fr:Gers (département)"
			}
		},
		{
			"type": "area",
			"id": 3600007423,
			"tags": {
				"ISO3166-2": "FR-70",
				"admin_level": "6",
				"border_type": "departement",
				"boundary": "administrative",
				"name": "Haute-Saône",
				"name:ar": "سون العليا",
				"name:br": "Saône-Uhel",
				"name:es": "Alto Saona",
				"name:fa": "اوت-سئون",
				"name:ja": "オート＝ソーヌ県",
				"name:ru": "Верхняя Сона",
				"name:ur": "بالائی-سون",
				"population": "235313",
				"population:date": "2019",
				"ref": "70",
				"ref:INSEE": "70",
				"ref:nuts": "FRC23",
				"ref:nuts:3": "FRC23",
				"source:name:br": "ofis publik ar brezhoneg",
				"source:population": "INSEE 2022",
				"type": "boundary",
				"wikidata": "Q12730",
				"wikipedia": "fr:Haute-Saône"
			}
		},
		{
			"type": "area",
			"id": 3600007424,
			"tags": {
				"ISO3166-2": "FR-21",
				"admin_level": "6",
				"border_type": "departement",
				"boundary": "administrative",
				"name": "Côte-d'Or",
				"name:ar": "كوت دور",
				"name:br": "Côte-d'Or",
				"name:ca": "Costa d'Or",
				"name:ja": "コート＝ドール県",
				"name:ru": "Кот-д'Ор",
				"population": "534124",
				"population:date": "2019",
				"ref": "21",
				"ref:INSEE": "21",
				"ref:nuts": "FRC11",
				"ref:nuts:3": "FRC11",
				"source:name:br": "ofis publik ar brezhoneg",
				"source:population": "INSEE 2022",
				"type": "boundary",
				"wikidata": "Q3342",
				"wikipedia": "fr:Côte-d'Or"
			}
		},
		{
			"type": "area",
			"id": 3600007425,
			"tags": {
				"ISO3166-2": "FR-73",
				"admin_level": "6",
				"border_type": "departement",
				"boundary": "administrative",
				"name": "Savoie",
				"name:br": "Savoia",
				"name:ca": "Savoia",
				"name:de": "Savoyen",
				"name:el": "Σαβοΐα",
				"name:en": "Savoy",
				"name:es": "Saboya",
				"name:fr": "Savoie",
				"name:it": "Savoia",
				"name:oc": "Savòia",
				"name:ru": "Савойя",
				"population": "436434",
				"population:date": "2019",
				"ref": "73",
				"ref:INSEE": "73",
				"ref:nuts": "FRK27",
				"ref:nuts:3": "FRK27",
				"source:name:oc": "ieo-bdtopoc",
				"source:population": "INSEE 2022",
				"type": "boundary",
				"wikidata": "Q12745",
				"wikipedia": "fr:Savoie (département)"
			}
		},
		{
			"type": "area",
			"id": 3600007426,
			"tags": {
				"ISO3166-2": "FR-76",
				"admin_level": "6",
				"border_type": "departement",
				"boundary": "administrative",
				"name": "Seine-Maritime",
				"name:an": "Sena-Maritimo",
				"name:ar": "السان-البحرية",
				"name:be": "Сена-Прыморская",
				"name:bg": "Сена-Маритим",
				"name:br": "Saena-an-Arvor",
				"name:ca": "Sena-Marítim",
				"name:cv": "Тинĕсçум-Сена",
				"name:es": "Sena-Marítimo",
				"name:fa": "سن-ماریتیم",
				"name:fr": "Seine-Maritime",
				"name:frp": "Sêna-Maritima",
				"name:he": "סן-מריטים",
				"name:hy": "Ծովամերձ-Սեն",
				"name:ja": "セーヌ＝マリティーム県",
				"name:ka": "ზღვისპირა-სენა",
				"name:kk": "Сена-Маритим",
				"name:ko": "센마리팀",
				"name:la": "Sequana-Maritima",
				"name:lt": "Pajūrio-Sena",
				"name:lv": "Piejūras-Sēna",
				"name:mr": "सीन-मरितीम",
				"name:oc": "Sèina-Maritima",
				"name:pl": "Sekwana-Nadmorska",
				"name:pms": "Sen-a-Marìtima",
				"name:pnb": "ضلع-سین-میریٹائم",
				"name:pt": "Sena-Marítimo",
				"name:ru": "Приморская-Сена",
				"name:sr": "Приморска-Сена",
				"name:tg": "Сена-Приморская",
				"name:th": "จังหวัดแซน-มารีตีม",
				"name:uk": "Приморська-Сена",
				"name:zh": "滨海塞纳省",
				"name:zh-Hans": "滨海塞纳省",
				"name:zh-Hant": "濱海塞納省",
				"population": "1255633",
				"population:date": "2019",
				"ref": "76",
				"ref:INSEE": "76",
				"ref:nuts": "FRD22",
				"ref:nuts:3": "FRD22",
				"source:name:br": "ofis publik ar brezhoneg",
				"source:population": "INSEE 2022",
				"type": "boundary",
				"wikidata": "Q12758",
				"wikipedia": "fr:Seine-Maritime"
			}
		},
		{
			"type": "area",
			"id": 3600007427,
			"tags": {
				"ISO3166-2": "FR-60",
				"admin_level": "6",
				"border_type": "departement",
				"boundary": "administrative",
				"name": "Oise",
				"name:fr": "Oise",
				"name:ru": "Уаза",
				"population": "829419",
				"population:date": "2019",
				"ref": "60",
				"ref:INSEE": "60",
				"ref:nuts": "FRE22",
				"ref:nuts:3": "FRE22",
				"source:population": "INSEE 2022",
				"type": "boundary",
				"wikidata": "Q12675",
				"wikipedia": "fr:Oise (département)"
			}
		},
		{
			"type": "area",
			"id": 3600007428,
			"tags": {
				"ISO3166-2": "FR-16",
				"admin_level": "6",
				"border_type": "departement",
				"boundary": "administrative",
				"name": "Charente",
				"name:ar": "شارنت",
				"name:fr": "Charente",
				"name:oc": "Charanta",
				"name:ru": "Шаранта",
				"population": "352015",
				"population:date": "2019",
				"ref": "16",
				"ref:INSEE": "16",
				"ref:nuts": "FRI31",
				"ref:nuts:3": "FRI31",
				"source:name:oc": "ieo-bdtopoc",
				"source:population": "INSEE 2022",
				"type": "boundary",
				"wikidata": "Q3266",
				"wikipedia": "fr:Charente (département)"
			}
		},
		{
			"type": "area",
			"id": 3600007429,
			"tags": {
				"ISO3166-2": "FR-34",
				"admin_level": "6",
				"border_type": "departement",
				"boundary": "administrative",
				"name": "Hérault",
				"name:an": "Erau",
				"name:ar": "هيرولت",
				"name:be": "Эро",
				"name:be-tarask": "Эро",
				"name:bg": "Еро",
				"name:br": "Erau",
				"name:ca": "Erau",
				"name:cv": "Эро",
				"name:fa": "ارو",
				"name:fr": "Hérault",
				"name:frp": "Hèrôlt",
				"name:he": "ארו",
				"name:hy": "Էրո",
				"name:ja": "エロー県",
				"name:ka": "ეროს",
				"name:kk": "Эро",
				"name:ko": "에로 주",
				"name:la": "Arauris",
				"name:lt": "Hero",
				"name:lv": "Ēro",
				"name:mn": "Эро",
				"name:mr": "एरॉ",
				"name:nan": "Hérault",
				"name:oc": "Erau",
				"name:pnb": "ایرو",
				"name:ru": "Эро",
				"name:sr": "Еро",
				"name:tg": "Эро",
				"name:th": "เอโร",
				"name:uk": "Еро",
				"name:zh": "埃罗省",
				"population": "1175623",
				"population:date": "2019",
				"ref": "34",
				"ref:INSEE": "34",
				"ref:nuts": "FRJ13",
				"ref:nuts:3": "FRJ13",
				"source:name:br": "ofis publik ar brezhoneg",
				"source:name:oc": "ieo-bdtopoc",
				"source:population": "INSEE 2022",
				"type": "boundary",
				"wikidata": "Q12545",
				"wikipedia": "fr:Hérault (département)"
			}
		},
		{
			"type": "area",
			"id": 3600007430,
			"tags": {
				"ISO3166-2": "FR-07",
				"admin_level": "6",
				"border_type": "departement",
				"boundary": "administrative",
				"name": "Ardèche",
				"name:br": "Ardecha",
				"name:ca": "Ardecha",
				"name:el": "Αρντές",
				"name:es": "Ardecha",
				"name:oc": "Ardecha",
				"name:ru": "Ардеш",
				"population": "328278",
				"population:date": "2019",
				"ref": "07",
				"ref:INSEE": "07",
				"ref:nuts": "FRK22",
				"ref:nuts:3": "FRK22",
				"source:name:br": "ofis publik ar brezhoneg",
				"source:name:oc": "ieo-bdtopoc",
				"source:population": "INSEE 2022",
				"type": "boundary",
				"wikidata": "Q3148",
				"wikipedia": "fr:Ardèche (département)"
			}
		},
		{
			"type": "area",
			"id": 3600007431,
			"tags": {
				"ISO3166-2": "FR-17",
				"admin_level": "6",
				"border_type": "departement",
				"boundary": "administrative",
				"name": "Charente-Maritime",
				"name:br": "Charentez-an-Arvor",
				"name:ca": "Charente Marítim",
				"name:eu": "Itsas Charente",
				"name:fr": "Charente-Maritime",
				"name:ru": "Приморская Шаранта",
				"population": "651358",
				"population:date": "2019",
				"ref": "17",
				"ref:INSEE": "17",
				"ref:nuts": "FRI32",
				"ref:nuts:3": "FRI32",
				"source:population": "INSEE 2022",
				"type": "boundary",
				"wikidata": "Q3278",
				"wikipedia": "fr:Charente-Maritime"
			}
		},
		{
			"type": "area",
			"id": 3600007432,
			"tags": {
				"ISO3166-2": "FR-44",
				"admin_level": "6",
				"border_type": "departement",
				"boundary": "administrative",
				"name": "Loire-Atlantique",
				"name:an": "Loira-Atlantica",
				"name:ar": "لوار-الأطلسية",
				"name:az": "Luar-Atlantik",
				"name:be": "Луара-Атлантычная",
				"name:bg": "Лоар-Атлантик",
				"name:br": "Liger-Atlantel",
				"name:ca": "Loira-Atlàntic",
				"name:cv": "Атлантика-енчи-Луара",
				"name:el": "Λουάρ-Ατλαντίκ",
				"name:es": "Loira-Atlántico",
				"name:fa": "لوآر-آتلانتیک",
				"name:fr": "Loire-Atlantique",
				"name:frp": "Lêre-Atlantica",
				"name:gd": "Liger-Atlantel",
				"name:gl": "Loira-Atlántico",
				"name:gv": "Liger-Atlantel",
				"name:he": "הלואר-האטלנטי",
				"name:hy": "Ատլանտյան-Լուար",
				"name:it": "Loira-Atlantica",
				"name:ja": "ロワール＝アトランティック県",
				"name:ka": "ატლანტიკის-ლუარა",
				"name:kk": "Атлантикалық-Луара",
				"name:ko": "루아르아틀랑티크",
				"name:kw": "Liger-Atlantel",
				"name:la": "Liger-Atlanticus",
				"name:lt": "Atlanto-Luara",
				"name:lv": "Atlantijas-Luāra",
				"name:mr": "लावार-अतलांतिक",
				"name:oc": "Léger-Atlantic",
				"name:pl": "Loara-Atlantycka",
				"name:pms": "Lòira-Atlàntica",
				"name:pnb": "ضلع-لوار-اٹلانٹک",
				"name:ru": "Атлантическая-Луара",
				"name:sr": "Атлантска-Лоара",
				"name:tg": "Луараи-Атлантикӣ",
				"name:th": "ลัวรัตล็องติก",
				"name:uk": "Атлантична-Луара",
				"name:zh": "大西洋卢瓦尔省",
				"old_name:1790-1957": "Loire-Inférieure",
				"population": "1429272",
				"population:date": "2019",
				"ref": "44",
				"ref:INSEE": "44",
				"ref:nuts": "FRG01",
				"ref:nuts:3": "FRG01",
				"source:name:oc": "ieo-bdtopoc",
				"source:old_name:1790-1957": "Wikipedia",
				"source:population": "INSEE 2022",
				"type": "boundary",
				"website": "https://www.loire-atlantique.fr/",
				"wikidata": "Q3068",
				"wikipedia": "fr:Loire-Atlantique"
			}
		},
		{
			"type": "area",
			"id": 3600007433,
			"tags": {
				"ISO3166-2": "FR-95",
				"admin_level": "6",
				"border_type": "departement",
				"boundary": "administrative",
				"name": "Val-d'Oise",
				"name:br": "Val-d'Oise",
				"name:es": "Valle del Oise",
				"name:fr": "Val-d'Oise",
				"name:ru": "Валь-д’Уаз",
				"population": "1249674",
				"population:date": "2019",
				"ref": "95",
				"ref:INSEE": "95",
				"ref:nuts": "FR108",
				"ref:nuts:3": "FR108",
				"source:name:br": "ofis publik ar brezhoneg",
				"source:population": "INSEE 2022",
				"type": "boundary",
				"wikidata": "Q12784",
				"wikipedia": "fr:Val-d'Oise"
			}
		},
		{
			"type": "area",
			"id": 3600007434,
			"tags": {
				"ISO3166-2": "FR-26",
				"admin_level": "6",
				"alt_name:th": "โดรมา;ดรูมอ",
				"border_type": "departement",
				"boundary": "administrative",
				"name": "Drôme",
				"name:an": "Droma",
				"name:ar": "دروم",
				"name:be": "Дром",
				"name:bg": "Дром",
				"name:br": "Droma",
				"name:ca": "Droma",
				"name:cv": "Дром",
				"name:fa": "دروم",
				"name:fr": "Drôme",
				"name:frp": "Drôma",
				"name:hy": "Դրոմ",
				"name:ja": "ドローム県",
				"name:ka": "დრომი",
				"name:kk": "Дром",
				"name:ko": "드롬",
				"name:la": "Drona",
				"name:lt": "Dromas",
				"name:lv": "Droma",
				"name:mr": "द्रोम",
				"name:oc": "Droma",
				"name:pnb": "دروم",
				"name:ru": "Дром",
				"name:sr": "Дром",
				"name:tg": "Дром",
				"name:th": "โดรม",
				"name:uk": "Дром",
				"name:zh": "德龙省",
				"population": "516762",
				"population:date": "2019",
				"ref": "26",
				"ref:INSEE": "26",
				"ref:nuts": "FRK23",
				"ref:nuts:3": "FRK23",
				"source:name:br": "ofis publik ar brezhoneg",
				"source:name:oc": "ieo-bdtopoc",
				"source:population": "INSEE 2022",
				"type": "boundary",
				"wikidata": "Q3364",
				"wikipedia": "fr:Drôme (département)"
			}
		},
		{
			"type": "area",
			"id": 3600007435,
			"tags": {
				"ISO3166-2": "FR-27",
				"admin_level": "6",
				"border_type": "departement",
				"boundary": "administrative",
				"name": "Eure",
				"name:ru": "Эр",
				"population": "599507",
				"population:date": "2019",
				"ref": "27",
				"ref:INSEE": "27",
				"ref:nuts": "FRD21",
				"ref:nuts:3": "FRD21",
				"source:population": "INSEE 2022",
				"type": "boundary",
				"wikidata": "Q3372",
				"wikipedia": "fr:Eure (département)"
			}
		},
		{
			"type": "area",
			"id": 3600007436,
			"tags": {
				"ISO3166-2": "FR-05",
				"admin_level": "6",
				"border_type": "departement",
				"boundary": "administrative",
				"name": "Hautes-Alpes",
				"name:ca": "Alts Alps",
				"name:de": "Hochalpen",
				"name:es": "Altos Alpes",
				"name:fr": "Hautes-Alpes",
				"name:oc": "Aups de Provença Auta",
				"name:pl": "Alpy Wysokie",
				"name:ru": "Верхние Альпы",
				"official_name": "Département des Hautes-Alpes",
				"population": "141220",
				"population:date": "2019",
				"ref": "05",
				"ref:INSEE": "05",
				"ref:nuts": "FRL02",
				"ref:nuts:3": "FRL02",
				"source:name:oc": "ieo-bdtopoc",
				"source:population": "INSEE 2022",
				"type": "boundary",
				"wikidata": "Q3125",
				"wikipedia": "fr:Hautes-Alpes"
			}
		},
		{
			"type": "area",
			"id": 3600007437,
			"tags": {
				"ISO3166-2": "FR-38",
				"admin_level": "6",
				"border_type": "departement",
				"boundary": "administrative",
				"name": "Isère",
				"name:br": "Isèra",
				"name:lt": "Izeras",
				"name:nl": "Isère",
				"name:oc": "Isèra",
				"name:ru": "Изер",
				"population": "1271166",
				"population:date": "2019",
				"ref": "38",
				"ref:INSEE": "38",
				"ref:nuts": "FRK24",
				"ref:nuts:3": "FRK24",
				"source": "cadastre-dgi-fr source : Direction Générale des Finances Publiques - Cadastre. Mise à jour : 2015",
				"source:name:br": "ofis publik ar brezhoneg",
				"source:name:oc": "ieo-bdtopoc",
				"source:population": "INSEE 2022",
				"type": "boundary",
				"wikidata": "Q12559",
				"wikipedia": "fr:Isère (département)"
			}
		},
		{
			"type": "area",
			"id": 3600007438,
			"tags": {
				"ISO3166-2": "FR-53",
				"admin_level": "6",
				"border_type": "departement",
				"boundary": "administrative",
				"name": "Mayenne",
				"name:br": "Mezven",
				"name:fr": "Mayenne",
				"name:ru": "Майен",
				"name:uk": "Майєнн",
				"population": "307062",
				"population:date": "2019",
				"ref": "53",
				"ref:INSEE": "53",
				"ref:nuts": "FRG03",
				"ref:nuts:3": "FRG03",
				"source:population": "INSEE 2022",
				"type": "boundary",
				"wikidata": "Q12620",
				"wikipedia": "fr:Mayenne (département)"
			}
		},
		{
			"type": "area",
			"id": 3600007439,
			"tags": {
				"ISO3166-2": "FR-09",
				"admin_level": "6",
				"border_type": "departement",
				"boundary": "administrative",
				"name": "Ariège",
				"name:br": "Arièja",
				"name:ca": "Arieja",
				"name:fr": "Ariège",
				"name:oc": "Arièja",
				"name:ru": "Арьеж",
				"population": "153287",
				"population:date": "2019",
				"ref": "09",
				"ref:INSEE": "09",
				"ref:nuts": "FRJ21",
				"ref:nuts:3": "FRJ21",
				"source:name:br": "ofis publik ar brezhoneg",
				"source:name:oc": "ieo-bdtopoc",
				"source:population": "INSEE 2022",
				"type": "boundary",
				"wikidata": "Q3184",
				"wikipedia": "fr:Ariège (département)"
			}
		},
		{
			"type": "area",
			"id": 3600007440,
			"tags": {
				"ISO3166-2": "FR-45",
				"admin_level": "6",
				"border_type": "departement",
				"boundary": "administrative",
				"name": "Loiret",
				"name:ar": "لواريت",
				"name:ru": "Луаре",
				"population": "680434",
				"population:date": "2019",
				"ref": "45",
				"ref:INSEE": "45",
				"ref:nuts": "FRB06",
				"ref:nuts:3": "FRB06",
				"source:population": "INSEE 2022",
				"type": "boundary",
				"wikidata": "Q12574",
				"wikipedia": "fr:Loiret (département)"
			}
		},
		{
			"type": "area",
			"id": 3600007441,
			"tags": {
				"ISO3166-2": "FR-10",
				"admin_level": "6",
				"border_type": "departement",
				"boundary": "administrative",
				"name": "Aube",
				"name:ar": "أوب",
				"name:be": "Об",
				"name:br": "Aube",
				"name:ca": "Auba",
				"name:cv": "Об",
				"name:el": "Ωμπ",
				"name:fa": "اوب",
				"name:fr": "Aube",
				"name:frp": "Ôbe",
				"name:he": "אוב",
				"name:hy": "Օբ",
				"name:ja": "オーブ県",
				"name:ka": "ობი",
				"name:kk": "Об",
				"name:ko": "오브",
				"name:la": "Alba",
				"name:lt": "Obas",
				"name:lv": "Oba",
				"name:mr": "ऑब",
				"name:mzn": "اوب",
				"name:oc": "Auba",
				"name:pnb": "اوب",
				"name:ru": "Об",
				"name:sr": "Об",
				"name:tg": "Об",
				"name:th": "โอบ",
				"name:uk": "Об",
				"name:zh": "奥布省",
				"population": "310242",
				"population:date": "2019",
				"ref": "10",
				"ref:INSEE": "10",
				"ref:nuts": "FRF22",
				"ref:nuts:3": "FRF22",
				"source:name:br": "ofis publik ar brezhoneg",
				"source:name:oc": "ieo-bdtopoc",
				"source:population": "INSEE 2022",
				"type": "boundary",
				"wikidata": "Q3194",
				"wikipedia": "fr:Aube (département)"
			}
		},
		{
			"type": "area",
			"id": 3600007442,
			"tags": {
				"ISO3166-2": "FR-81",
				"admin_level": "6",
				"border_type": "departement",
				"boundary": "administrative",
				"name": "Tarn",
				"name:br": "Tarn",
				"name:el": "Τάρνη",
				"name:fr": "Tarn",
				"name:oc": "Tarn",
				"name:ru": "Тарн",
				"population": "389844",
				"population:date": "2019",
				"ref": "81",
				"ref:INSEE": "81",
				"ref:nuts": "FRJ27",
				"ref:nuts:3": "FRJ27",
				"source:name:br": "ofis publik ar brezhoneg",
				"source:name:oc": "ieo-bdtopoc",
				"source:population": "INSEE 2022",
				"type": "boundary",
				"wikidata": "Q12772",
				"wikipedia": "fr:Tarn (département)"
			}
		},
		{
			"type": "area",
			"id": 3600007443,
			"tags": {
				"ISO3166-2": "FR-72",
				"admin_level": "6",
				"border_type": "departement",
				"boundary": "administrative",
				"name": "Sarthe",
				"name:br": "Seurzh",
				"name:el": "Σαρτ",
				"name:ru": "Сарта",
				"population": "566412",
				"population:date": "2019",
				"ref": "72",
				"ref:INSEE": "72",
				"ref:nuts": "FRG04",
				"ref:nuts:3": "FRG04",
				"source:name:br": "ofis publik ar brezhoneg",
				"source:population": "INSEE 2022",
				"type": "boundary",
				"wikidata": "Q12740",
				"wikipedia": "fr:Sarthe (département)"
			}
		},
		{
			"type": "area",
			"id": 3600007445,
			"tags": {
				"ISO3166-2": "FR-84",
				"admin_level": "6",
				"border_type": "departement",
				"boundary": "administrative",
				"name": "Vaucluse",
				"name:ar": "فوكلوز",
				"name:br": "Vauclusa",
				"name:ca": "Valclusa",
				"name:el": "Βωκλύζ",
				"name:oc": "Vauclusa",
				"name:ru": "Воклюз",
				"population": "561469",
				"population:date": "2019",
				"ref": "84",
				"ref:INSEE": "84",
				"ref:nuts": "FRL06",
				"ref:nuts:3": "FRL06",
				"source:name:br": "ofis publik ar brezhoneg",
				"source:name:oc": "ieo-bdtopoc",
				"source:population": "INSEE 2022",
				"type": "boundary",
				"wikidata": "Q12792",
				"wikipedia": "fr:Vaucluse (département)"
			}
		},
		{
			"type": "area",
			"id": 3600007446,
			"tags": {
				"ISO3166-2": "FR-11",
				"admin_level": "6",
				"border_type": "departement",
				"boundary": "administrative",
				"name": "Aude",
				"name:br": "Aude",
				"name:fr": "Aude",
				"name:oc": "Aude",
				"name:ru": "Од",
				"population": "374070",
				"population:date": "2019",
				"ref": "11",
				"ref:INSEE": "11",
				"ref:nuts": "FRJ11",
				"ref:nuts:3": "FRJ11",
				"source:name:br": "ofis publik ar brezhoneg",
				"source:name:oc": "ieo-bdtopoc",
				"source:population": "INSEE 2022",
				"type": "boundary",
				"wikidata": "Q3207",
				"wikipedia": "fr:Aude (département)"
			}
		},
		{
			"type": "area",
			"id": 3600007447,
			"tags": {
				"ISO3166-2": "FR-56",
				"admin_level": "6",
				"border_type": "departement",
				"boundary": "administrative",
				"name": "Morbihan",
				"name:br": "Mor-Bihan",
				"name:ru": "Морбиан",
				"population": "759684",
				"population:date": "2019",
				"ref": "56",
				"ref:INSEE": "56",
				"ref:nuts": "FRH04",
				"ref:nuts:3": "FRH04",
				"source:population": "INSEE 2022",
				"type": "boundary",
				"wikidata": "Q12642",
				"wikipedia": "fr:Morbihan"
			}
		},
		{
			"type": "area",
			"id": 3600007448,
			"tags": {
				"ISO3166-2": "FR-58",
				"admin_level": "6",
				"border_type": "departement",
				"boundary": "administrative",
				"name": "Nièvre",
				"name:ar": "نيافر",
				"name:be": "Ньеўр",
				"name:bg": "Ниевър",
				"name:cv": "Ньевр",
				"name:el": "Νιέβρ",
				"name:fa": "نی‌یور",
				"name:fr": "Nièvre",
				"name:frp": "Niévre",
				"name:hy": "Նյևր",
				"name:ja": "ニエーヴル県",
				"name:ka": "ნიევრი",
				"name:kk": "Ньевр",
				"name:ko": "니에브르",
				"name:la": "Niver",
				"name:lt": "Njevras",
				"name:lv": "Njevra",
				"name:mr": "न्येव्र",
				"name:pnb": "نیور",
				"name:ru": "Ньевр",
				"name:sr": "Нијевр",
				"name:tg": "Невр",
				"name:th": "เนียฟวร์",
				"name:uk": "Ньєвр",
				"name:zh": "涅夫勒省",
				"population": "204452",
				"population:date": "2019",
				"ref": "58",
				"ref:INSEE": "58",
				"ref:nuts": "FRC12",
				"ref:nuts:3": "FRC12",
				"source:population": "INSEE 2022",
				"type": "boundary",
				"wikidata": "Q12657",
				"wikipedia": "fr:Nièvre (département)"
			}
		},
		{
			"type": "area",
			"id": 3600007449,
			"tags": {
				"ISO3166-2": "FR-92",
				"admin_level": "6",
				"border_type": "departement",
				"boundary": "administrative",
				"name": "Hauts-de-Seine",
				"name:el": "Ω-ντε-Σεν",
				"name:es": "Altos del Sena",
				"name:fr": "Hauts-de-Seine",
				"name:ru": "О-де-Сен",
				"population": "1624357",
				"population:date": "2019",
				"ref": "92",
				"ref:INSEE": "92",
				"ref:nuts": "FR105",
				"ref:nuts:3": "FR105",
				"source:population": "INSEE 2022",
				"type": "boundary",
				"wikidata": "Q12543",
				"wikipedia": "fr:Hauts-de-Seine"
			}
		},
		{
			"type": "area",
			"id": 3600007450,
			"tags": {
				"ISO3166-2": "FR-64",
				"admin_level": "6",
				"border_type": "departement",
				"boundary": "administrative",
				"description": "Pas de Trait d'union dans les autres langues",
				"name": "Pyrénées-Atlantiques",
				"name:an": "Pireneus Atlanticos",
				"name:ar": "البرانيس-الأطلسية",
				"name:be": "Пірэнеі Атлантычныя",
				"name:bg": "Пирене Атлантик",
				"name:br": "Pireneoù Atlantel",
				"name:ca": "Pirineus Atlàntics",
				"name:cv": "Атлантика енчи Пиреней",
				"name:de": "Pyrenäen-Atlantik",
				"name:el": "Ατλαντικές Πυρηναίες",
				"name:eu": "Pirinio Atlantikoak",
				"name:fa": "پیرنه-آتلانتیک",
				"name:fr": "Pyrénées-Atlantiques",
				"name:frp": "Pirènês Atlanticos",
				"name:gl": "Pireneos Atlánticos",
				"name:he": "הפירנאים האטלנטיים",
				"name:hr": "Atlantski-Pireneji",
				"name:hy": "Ատլանտյան-Պիրենեյներ",
				"name:it": "Pirenei Atlantici",
				"name:ja": "ピレネー＝アトランティック県",
				"name:ka": "ატლანტური პირენეები",
				"name:kk": "Атлантикалық-Пиреней",
				"name:ko": "피레네자틀랑티크",
				"name:la": "Pyrenaeus-Atlanticus",
				"name:lt": "Atlanto-Pirėnai",
				"name:lv": "Atlantijas-Pireneji",
				"name:mr": "पिरेने-अतलांतिक",
				"name:mzn": "پیرنه-آتلانتیک",
				"name:oc": "Pirenèus Atlantics",
				"name:pl": "Pireneje Atlantyckie",
				"name:pms": "Pirené Atlàntich",
				"name:pnb": "ضلع-پیرینیز-اٹلانٹک",
				"name:pt": "Pirenéus Atlânticos",
				"name:ru": "Атлантические Пиренеи",
				"name:sr": "Атлантски Пиринеји",
				"name:tg": "Пиренеи Атлантикӣ",
				"name:th": "จังหวัดปีเรเน อัตล็องติก",
				"name:uk": "Атлантичні Піренеї",
				"name:zh": "比利牛斯 大西洋省",
				"population": "682621",
				"population:date": "2019",
				"ref": "64",
				"ref:INSEE": "64",
				"ref:nuts": "FRI15",
				"ref:nuts:3": "FRI15",
				"source:name:br": "ofis publik ar brezhoneg",
				"source:name:oc": "ieo-bdtopoc",
				"source:population": "INSEE 2022",
				"type": "boundary",
				"wikidata": "Q12703",
				"wikipedia": "fr:Pyrénées-Atlantiques"
			}
		},
		{
			"type": "area",
			"id": 3600007451,
			"tags": {
				"ISO3166-2": "FR-12",
				"admin_level": "6",
				"border_type": "departement",
				"boundary": "administrative",
				"name": "Aveyron",
				"name:ar": "أفيرون",
				"name:br": "Avairon",
				"name:ca": "Avairon",
				"name:fa": "آویرون",
				"name:fr": "Aveyron",
				"name:oc": "Avairon",
				"name:ru": "Аверон",
				"name:ur": "اویرون",
				"population": "279595",
				"population:date": "2019",
				"ref": "12",
				"ref:INSEE": "12",
				"ref:nuts": "FRJ22",
				"ref:nuts:3": "FRJ22",
				"source:name:oc": "ieo-bdtopoc",
				"source:population": "INSEE 2022",
				"type": "boundary",
				"wikidata": "Q3216",
				"wikipedia": "fr:Aveyron (département)"
			}
		},
		{
			"type": "area",
			"id": 3600007452,
			"tags": {
				"ISO3166-2": "FR-43",
				"admin_level": "6",
				"border_type": "departement",
				"boundary": "administrative",
				"name": "Haute-Loire",
				"name:br": "Liger-Uhel",
				"name:es": "Alto Loira",
				"name:oc": "Naut Léger",
				"name:ru": "Верхняя Луара",
				"population": "227570",
				"population:date": "2019",
				"ref": "43",
				"ref:INSEE": "43",
				"ref:nuts": "FRK13",
				"ref:nuts:3": "FRK13",
				"source:name:br": "ofis publik ar brezhoneg",
				"source:name:oc": "ieo-bdtopoc",
				"source:population": "INSEE 2022",
				"type": "boundary",
				"wikidata": "Q12572",
				"wikipedia": "fr:Haute-Loire"
			}
		},
		{
			"type": "area",
			"id": 3600007453,
			"tags": {
				"ISO3166-2": "FR-14",
				"admin_level": "6",
				"border_type": "departement",
				"boundary": "administrative",
				"name": "Calvados",
				"name:ar": "كالفادوس",
				"name:br": "Calvados",
				"name:el": "Καλβαντός",
				"name:fr": "Calvados",
				"name:ru": "Кальвадос",
				"population": "694905",
				"population:date": "2019",
				"ref": "14",
				"ref:INSEE": "14",
				"ref:nuts": "FRD11",
				"ref:nuts:3": "FRD11",
				"source:name:br": "ofis publik ar brezhoneg",
				"source:population": "INSEE 2022",
				"type": "boundary",
				"wikidata": "Q3249",
				"wikipedia": "fr:Calvados (département)"
			}
		},
		{
			"type": "area",
			"id": 3600007454,
			"tags": {
				"ISO3166-2": "FR-46",
				"admin_level": "6",
				"border_type": "departement",
				"boundary": "administrative",
				"name": "Lot",
				"name:ar": "لوت",
				"name:be": "Лот",
				"name:bg": "Лот",
				"name:br": "Lot",
				"name:ca": "Òlt",
				"name:fa": "لو",
				"name:fr": "Lot",
				"name:he": "לוט",
				"name:hy": "Լո",
				"name:ja": "ロット県",
				"name:ka": "ლო",
				"name:ko": "로트",
				"name:mr": "लॉत",
				"name:oc": "Òlt",
				"name:ru": "Лот",
				"name:sr": "Лот",
				"name:th": "ล็อต",
				"name:uk": "Лот",
				"name:zh": "洛特省",
				"population": "174094",
				"population:date": "2019",
				"ref": "46",
				"ref:INSEE": "46",
				"ref:nuts": "FRJ25",
				"ref:nuts:3": "FRJ25",
				"source": "Cadastre; Ortho HR 2019",
				"source:name:oc": "ieo-bdtopoc",
				"source:population": "INSEE 2022",
				"type": "boundary",
				"wikidata": "Q12576",
				"wikipedia": "fr:Lot (département)"
			}
		},
		{
			"type": "area",
			"id": 3600007455,
			"tags": {
				"ISO3166-2": "FR-79",
				"admin_level": "6",
				"border_type": "departement",
				"boundary": "administrative",
				"name": "Deux-Sèvres",
				"name:br": "Deux-Sèvres",
				"name:el": "Ντε-Σεβρ",
				"name:fr": "Deux-Sèvres",
				"name:ru": "Дё-Севр",
				"population": "374878",
				"population:date": "2019",
				"ref": "79",
				"ref:INSEE": "79",
				"ref:nuts": "FRI33",
				"ref:nuts:3": "FRI33",
				"source:name:br": "ofis publik ar brezhoneg",
				"source:population": "INSEE 2022",
				"type": "boundary",
				"wikidata": "Q12765",
				"wikipedia": "fr:Deux-Sèvres"
			}
		},
		{
			"type": "area",
			"id": 3600007456,
			"tags": {
				"ISO3166-2": "FR-18",
				"admin_level": "6",
				"border_type": "departement",
				"boundary": "administrative",
				"name": "Cher",
				"name:ar": "شار",
				"name:be": "Шэр",
				"name:bg": "Шер",
				"name:cv": "Шер",
				"name:fa": "شر",
				"name:fr": "Cher",
				"name:frp": "Ch·èr",
				"name:hy": "Շեր",
				"name:ja": "シェール県",
				"name:ka": "შერი",
				"name:kk": "Шер",
				"name:ko": "셰르",
				"name:la": "Carus",
				"name:lt": "Šeras",
				"name:lv": "Šēra",
				"name:mr": "शेर",
				"name:oc": "Char",
				"name:pnb": "شر",
				"name:ru": "Шер",
				"name:sr": "Шер",
				"name:tg": "Шер",
				"name:th": "แชร์",
				"name:uk": "Шер",
				"name:zh": "谢尔省",
				"population": "302306",
				"population:date": "2019",
				"ref": "18",
				"ref:INSEE": "18",
				"ref:nuts": "FRB01",
				"ref:nuts:3": "FRB01",
				"source:name:oc": "ieo-bdtopoc",
				"source:population": "INSEE 2022",
				"type": "boundary",
				"website": "https://www.cg18.fr/",
				"wikidata": "Q3286",
				"wikipedia": "fr:Cher (département)"
			}
		},
		{
			"type": "area",
			"id": 3600007457,
			"tags": {
				"ISO3166-2": "FR-78",
				"admin_level": "6",
				"border_type": "departement",
				"boundary": "administrative",
				"name": "Yvelines",
				"name:el": "Υβελίνες",
				"name:ru": "Ивелин",
				"population": "1448207",
				"population:date": "2019",
				"ref": "78",
				"ref:INSEE": "78",
				"ref:nuts": "FR103",
				"ref:nuts:3": "FR103",
				"source:population": "INSEE 2022",
				"type": "boundary",
				"wikidata": "Q12820",
				"wikipedia": "fr:Yvelines"
			}
		},
		{
			"type": "area",
			"id": 3600007458,
			"tags": {
				"ISO3166-2": "FR-94",
				"admin_level": "6",
				"border_type": "departement",
				"boundary": "administrative",
				"name": "Val-de-Marne",
				"name:el": "Βαλ-ντε-Μαρν",
				"name:es": "Valle del Marne",
				"name:fr": "Val-de-Marne",
				"name:ru": "Валь-де-Марн",
				"population": "1407124",
				"population:date": "2019",
				"ref": "94",
				"ref:INSEE": "94",
				"ref:nuts": "FR107",
				"ref:nuts:3": "FR107",
				"source:population": "INSEE 2022",
				"type": "boundary",
				"wikidata": "Q12788",
				"wikipedia": "fr:Val-de-Marne"
			}
		},
		{
			"type": "area",
			"id": 3600007459,
			"tags": {
				"ISO3166-2": "FR-23",
				"admin_level": "6",
				"border_type": "departement",
				"boundary": "administrative",
				"name": "Creuse",
				"name:br": "Cruesa",
				"name:ca": "Cruesa",
				"name:fr": "Creuse",
				"name:oc": "Cruesa",
				"name:ru": "Крёз",
				"population": "116617",
				"population:date": "2019",
				"ref": "23",
				"ref:INSEE": "23",
				"ref:nuts": "FRI22",
				"ref:nuts:3": "FRI22",
				"source:name:br": "ofis publik ar brezhoneg",
				"source:name:oc": "ieo-bdtopoc",
				"source:population": "INSEE 2022",
				"type": "boundary",
				"wikidata": "Q3353",
				"wikipedia": "fr:Creuse (département)"
			}
		},
		{
			"type": "area",
			"id": 3600007460,
			"tags": {
				"ISO3166-2": "FR-39",
				"admin_level": "6",
				"border_type": "departement",
				"boundary": "administrative",
				"name": "Jura",
				"name:an": "جورا",
				"name:be": "Юра",
				"name:bg": "Жура",
				"name:cv": "Юра",
				"name:de": "Jura",
				"name:eo": "Ĵuraso",
				"name:fa": "ژورا",
				"name:fr": "Jura",
				"name:hy": "Յուրա",
				"name:it": "Giura",
				"name:ja": "ジュラ県",
				"name:ka": "იურის",
				"name:kk": "Юра",
				"name:ko": "쥐라",
				"name:la": "Iura",
				"name:mr": "श्युरॅ",
				"name:pnb": "جورا",
				"name:ru": "Юра",
				"name:sr": "Жира",
				"name:tg": "Юра",
				"name:th": "ฌูว์รา",
				"name:uk": "Жура",
				"name:vec": "Giura",
				"name:zh": "汝拉省",
				"population": "259199",
				"population:date": "2019",
				"ref": "39",
				"ref:FR:SIREN": "223900010",
				"ref:INSEE": "39",
				"ref:nuts": "FRC22",
				"ref:nuts:3": "FRC22",
				"source:population": "INSEE 2022",
				"type": "boundary",
				"wikidata": "Q3120",
				"wikipedia": "fr:Jura (département)"
			}
		},
		{
			"type": "area",
			"id": 3600007461,
			"tags": {
				"ISO3166-2": "FR-30",
				"admin_level": "6",
				"border_type": "departement",
				"boundary": "administrative",
				"name": "Gard",
				"name:an": "Gardon",
				"name:ar": "غارد",
				"name:be": "Гар",
				"name:be-tarask": "Гар",
				"name:bg": "Гар",
				"name:cv": "Гар",
				"name:el": "Γκαρ",
				"name:fa": "گار",
				"name:fr": "Gard",
				"name:hak": "Gard-sén",
				"name:hy": "Գար",
				"name:ja": "ガール県",
				"name:ka": "ოდის",
				"name:kk": "Гар",
				"name:ko": "가르 주",
				"name:la": "Vardo",
				"name:lt": "Gāra",
				"name:mn": "Гар",
				"name:mr": "गार्द",
				"name:nan": "Gard",
				"name:pnb": "گارد",
				"name:ru": "Гар",
				"name:sr": "Гар",
				"name:tg": "Гар",
				"name:th": "การ์",
				"name:uk": "Гар",
				"name:zh": "加尔省",
				"population": "748437",
				"population:date": "2019",
				"ref": "30",
				"ref:INSEE": "30",
				"ref:nuts": "FRJ12",
				"ref:nuts:3": "FRJ12",
				"source:population": "INSEE 2022",
				"type": "boundary",
				"wikidata": "Q12515",
				"wikipedia": "fr:Gard"
			}
		},
		{
			"type": "area",
			"id": 3600007462,
			"tags": {
				"ISO3166-2": "FR-25",
				"admin_level": "6",
				"border_type": "departement",
				"boundary": "administrative",
				"name": "Doubs",
				"name:ar": "دوبس",
				"name:be": "Ду",
				"name:bg": "Ду",
				"name:cv": "Ду",
				"name:fa": "دو",
				"name:fr": "Doubs",
				"name:frp": "Dubs",
				"name:he": "דו",
				"name:hy": "Դու",
				"name:ja": "ドゥー県",
				"name:ka": "დუ",
				"name:kk": "Ду",
				"name:ko": "두",
				"name:la": "Dubis",
				"name:lt": "Du",
				"name:lv": "Dū",
				"name:mr": "दूब",
				"name:oc": "Dobs",
				"name:pnb": "دوبس",
				"name:ru": "Ду",
				"name:sr": "Ду",
				"name:tg": "Ду",
				"name:th": "ดู",
				"name:uk": "Ду",
				"name:zh": "杜省",
				"population": "543974",
				"population:date": "2019",
				"ref": "25",
				"ref:INSEE": "25",
				"ref:nuts": "FRC21",
				"ref:nuts:3": "FRC21",
				"source:name:oc": "ieo-bdtopoc",
				"source:population": "INSEE 2022",
				"type": "boundary",
				"wikidata": "Q3361",
				"wikipedia": "fr:Doubs (département)"
			}
		},
		{
			"type": "area",
			"id": 3600007463,
			"tags": {
				"ISO3166-2": "FR-80",
				"admin_level": "6",
				"border_type": "departement",
				"boundary": "administrative",
				"name": "Somme",
				"name:fr": "Somme",
				"name:ru": "Сомма",
				"population": "570559",
				"population:date": "2019",
				"ref": "80",
				"ref:INSEE": "80",
				"ref:nuts": "FRE23",
				"ref:nuts:3": "FRE23",
				"source:population": "INSEE 2022",
				"type": "boundary",
				"wikidata": "Q12770",
				"wikipedia": "fr:Somme (département)"
			}
		},
		{
			"type": "area",
			"id": 3600007464,
			"tags": {
				"ISO3166-2": "FR-19",
				"admin_level": "6",
				"border_type": "departement",
				"boundary": "administrative",
				"name": "Corrèze",
				"name:br": "Corresa",
				"name:ca": "Corresa",
				"name:fr": "Corrèze",
				"name:oc": "Corresa",
				"name:ru": "Коррез",
				"population": "240073",
				"population:date": "2019",
				"ref": "19",
				"ref:INSEE": "19",
				"ref:nuts": "FRI21",
				"ref:nuts:3": "FRI21",
				"source:name:br": "ofis publik ar brezhoneg",
				"source:name:oc": "ieo-bdtopoc",
				"source:population": "INSEE 2022",
				"type": "boundary",
				"wikidata": "Q3326",
				"wikipedia": "fr:Corrèze (département)"
			}
		},
		{
			"type": "area",
			"id": 3600007465,
			"tags": {
				"ISO3166-2": "FR-35",
				"admin_level": "6",
				"border_type": "departement",
				"boundary": "administrative",
				"name": "Ille-et-Vilaine",
				"name:br": "Il-ha-Gwilen",
				"name:ru": "Иль и Вилен",
				"population": "1079498",
				"population:date": "2019",
				"ref": "35",
				"ref:INSEE": "35",
				"ref:nuts": "FRH03",
				"ref:nuts:3": "FRH03",
				"source:population": "INSEE 2022",
				"type": "boundary",
				"wikidata": "Q12549",
				"wikipedia": "fr:Ille-et-Vilaine"
			}
		},
		{
			"type": "area",
			"id": 3600007466,
			"tags": {
				"ISO3166-2": "FR-66",
				"admin_level": "6",
				"border_type": "departement",
				"boundary": "administrative",
				"name": "Pyrénées-Orientales",
				"name:br": "Pireneoù-ar-Reter",
				"name:ca": "Pirineus Orientals",
				"name:de": "Ostpyrenäen",
				"name:es": "Pirineos Orientales",
				"name:fr": "Pyrénées-Orientales",
				"name:it": "Pirenei Orientali",
				"name:lt": "Rytų Pirėnai",
				"name:oc": "Pirenèus Orientals",
				"name:ru": "Восточные Пиренеи",
				"population": "479979",
				"population:date": "2019",
				"ref": "66",
				"ref:INSEE": "66",
				"ref:nuts": "FRJ15",
				"ref:nuts:3": "FRJ15",
				"source:name:br": "ofis publik ar brezhoneg",
				"source:name:oc": "ieo-bdtopoc",
				"source:population": "INSEE 2022",
				"type": "boundary",
				"wikidata": "Q12709",
				"wikipedia": "fr:Pyrénées-Orientales"
			}
		},
		{
			"type": "area",
			"id": 3600007467,
			"tags": {
				"ISO3166-2": "FR-65",
				"admin_level": "6",
				"alt_name": "Canal de l'Alaric",
				"alt_name:fro": "Пиренеи-Боло",
				"border_type": "departement",
				"boundary": "administrative",
				"name": "Hautes-Pyrénées",
				"name:an": "Altos Pireneus",
				"name:ar": "البرانيس العليا",
				"name:be": "Верхнія Пірэнеі",
				"name:bg": "От Пирене",
				"name:br": "Pireneoù Uhel",
				"name:ca": "Alts Pirineus",
				"name:cv": "Тури Пиреней",
				"name:en": "Hautes Pyrenees",
				"name:eo": "Altaj Pireneoj",
				"name:es": "Altos Pirineos",
				"name:eu": "Pirinio Garaiak",
				"name:fa": "اوت پیرنه",
				"name:fr": "Hautes-Pyrénées",
				"name:frp": "Hôts Pirènês",
				"name:gl": "Altos Pireneos",
				"name:hak": "Sông Pyrénées sén",
				"name:hy": "Վերին-Պիրենեյներ",
				"name:it": "Alti-Pirenei",
				"name:ja": "オート＝ピレネー県",
				"name:ka": "ზემო პირენეები",
				"name:kk": "Жоғарғы Пиреней",
				"name:ko": "오트피레네",
				"name:la": "Pyrenaeus Superior",
				"name:lt": "Aukštutiniai Pirėnai",
				"name:lv": "Augšpireneji",
				"name:mr": "ऑत-पिरेने",
				"name:oc": "Hauts Pirenèus",
				"name:pl": "Pireneje Wysokie",
				"name:pms": "Àut Pirené",
				"name:pnb": "ضلع-اوٹ پیرینیز",
				"name:pt": "Altos Pirineus",
				"name:ru": "Верхние Пиренеи",
				"name:sr": "Високи Пиринеји",
				"name:tg": "Пиренеи Верхние",
				"name:th": "จังหวัดโอต ปีเรเน",
				"name:uk": "Верхні Піренеї",
				"name:zh": "上比利牛斯省",
				"population": "229567",
				"population:date": "2019",
				"ref": "65",
				"ref:INSEE": "65",
				"ref:nuts": "FRJ26",
				"ref:nuts:3": "FRJ26",
				"source:name:oc": "ieo-bdtopoc",
				"source:population": "INSEE 2022",
				"type": "boundary",
				"wikidata": "Q12700",
				"wikipedia": "fr:Hautes-Pyrénées"
			}
		},
		{
			"type": "area",
			"id": 3600051854,
			"tags": {
				"ISO3166-2": "FR-57",
				"admin_level": "6",
				"border_type": "departement",
				"boundary": "administrative",
				"name": "Moselle",
				"name:ar": "موزل",
				"name:de": "Mosel",
				"name:es": "Mosela",
				"name:fa": "موزل",
				"name:fr": "Moselle",
				"name:lt": "Mozelis",
				"name:ru": "Мозель",
				"name:ur": "موزل",
				"population": "1046543",
				"population:date": "2019",
				"ref": "57",
				"ref:INSEE": "57",
				"ref:nuts": "FRF33",
				"ref:nuts:3": "FRF33",
				"source:population": "INSEE 2022",
				"type": "boundary",
				"wikidata": "Q12652",
				"wikipedia": "fr:Moselle (département)"
			}
		},
		{
			"type": "area",
			"id": 3600051856,
			"tags": {
				"ISO3166-2": "FR-54",
				"admin_level": "6",
				"border_type": "departement",
				"boundary": "administrative",
				"name": "Meurthe-et-Moselle",
				"name:ca": "Meurthe i Mosel·la",
				"name:de": "Mörthe und Mosel",
				"name:es": "Meurthe y Mosela",
				"name:ru": "Мёрт и Мозель",
				"population": "733760",
				"population:date": "2019",
				"ref": "54",
				"ref:INSEE": "54",
				"ref:nuts": "FRF31",
				"ref:nuts:3": "FRF31",
				"source:population": "INSEE 2022",
				"type": "boundary",
				"wikidata": "Q12626",
				"wikipedia": "fr:Meurthe-et-Moselle"
			}
		},
		{
			"type": "area",
			"id": 3600076931,
			"tags": {
				"ISO3166-2": "FR-2B",
				"admin_level": "6",
				"border_type": "departement",
				"boundary": "administrative",
				"name": "Haute-Corse",
				"name:br": "Korsika-Uhel",
				"name:ca": "Alta Còrsega",
				"name:co": "Cismonte",
				"name:el": "Άνω Κορσική",
				"name:es": "Alta Córcega",
				"name:eu": "Korsika Garaia",
				"name:fr": "Haute-Corse",
				"name:hu": "Felső-Korzika",
				"name:ru": "Верхняя Корсика",
				"population": "181933",
				"population:date": "2019",
				"ref": "2B",
				"ref:INSEE": "2B",
				"ref:nuts": "FRM02",
				"ref:nuts:3": "FRM02",
				"source:name:br": "ofis publik ar brezhoneg",
				"source:population": "INSEE 2022",
				"type": "boundary",
				"wikidata": "Q3334",
				"wikipedia": "fr:Haute-Corse"
			}
		},
		{
			"type": "area",
			"id": 3600076932,
			"tags": {
				"ISO3166-2": "FR-2A",
				"admin_level": "6",
				"border_type": "departement",
				"boundary": "administrative",
				"name": "Corse-du-Sud",
				"name:ar": "جنوب قرسقة",
				"name:br": "Korsika-ar-Su",
				"name:ca": "Còrsega del Sud",
				"name:co": "Pumonte",
				"name:de": "Südkorsika",
				"name:el": "Νότια Κορσική",
				"name:en": "South Corsica",
				"name:es": "Córcega del Sur",
				"name:eu": "Hego Korsika",
				"name:fr": "Corse-du-Sud",
				"name:hu": "Dél-Korzika",
				"name:it": "Corsica del Sud",
				"name:ru": "Южная Корсика",
				"population": "158507",
				"population:date": "2019",
				"ref": "2A",
				"ref:INSEE": "2A",
				"ref:nuts": "FRM01",
				"ref:nuts:3": "FRM01",
				"source:name:br": "ofis publik ar brezhoneg",
				"source:population": "INSEE 2022",
				"type": "boundary",
				"wikidata": "Q3336",
				"wikipedia": "fr:Corse-du-Sud"
			}
		},
		{
			"type": "area",
			"id": 3600078748,
			"tags": {
				"ISO3166-2": "BE-WBR",
				"admin_level": "6",
				"border_type": "departement",
				"boundary": "administrative",
				"name": "Brabant wallon",
				"name:ca": "Brabant Való",
				"name:de": "Wallonisch-Brabant",
				"name:en": "Walloon Brabant",
				"name:es": "Brabante Valón",
				"name:fr": "Brabant wallon",
				"name:fy": "Waalsk-Brabân",
				"name:hu": "Vallon-Brabant",
				"name:nds-nl": "Waols-Braobaant",
				"name:nl": "Waals-Brabant",
				"name:pl": "Brabancja Walońska",
				"name:ru": "Валлонский Брабант",
				"name:sk": "Valónske Brabantsko",
				"ref:INS": "20002",
				"ref:nuts": "BE31",
				"ref:nuts:2": "BE31",
				"type": "boundary",
				"wikidata": "Q1122",
				"wikipedia": "fr:Province du Brabant wallon"
			}
		},
		{
			"type": "area",
			"id": 3600102430,
			"tags": {
				"ISO3166-2": "FR-29",
				"admin_level": "6",
				"border_type": "departement",
				"boundary": "administrative",
				"name": "Finistère",
				"name:an": "Finisterre",
				"name:ar": "فنستير",
				"name:be": "Фіністэр",
				"name:bg": "Финистер",
				"name:br": "Penn-ar-Bed",
				"name:ca": "Finisterre",
				"name:cv": "Финистер",
				"name:cy": "Penn-ar-Bed",
				"name:es": "Finisterre",
				"name:fa": "فینیستر",
				"name:fr": "Finistère",
				"name:frp": "Finistèro",
				"name:ga": "Penn-ar-Bed",
				"name:gd": "Penn-ar-Bed",
				"name:gv": "Penn-ar-Bed",
				"name:he": "פיניסטר",
				"name:hy": "Ֆինիստեր",
				"name:ja": "フィニステール県",
				"name:ka": "ფინისტერი",
				"name:kk": "Финистер",
				"name:ko": "피니스테르",
				"name:kw": "Penn-ar-Bed",
				"name:la": "Finis Terrae",
				"name:lt": "Finisteras",
				"name:lv": "Finistēra",
				"name:mr": "फिनिस्तर",
				"name:oc": "Finistèrra",
				"name:pnb": "ضلع فنستر",
				"name:ru": "Финистер",
				"name:sr": "Финистер",
				"name:tg": "Финистер",
				"name:th": "ฟีนิสแตร์",
				"name:uk": "Фіністер",
				"name:zh": "非尼斯泰尔省",
				"population": "915090",
				"population:date": "2019",
				"ref": "29",
				"ref:INSEE": "29",
				"ref:nuts": "FRH02",
				"ref:nuts:3": "FRH02",
				"source:name:oc": "ieo-bdtopoc",
				"source:population": "INSEE 2022",
				"type": "boundary",
				"website": "http://www.cg29.fr/",
				"wikidata": "Q3389",
				"wikipedia": "fr:Finistère"
			}
		},
		{
			"type": "area",
			"id": 3600157559,
			"tags": {
				"ISO3166-2": "BE-WHT",
				"admin_level": "6",
				"border_type": "departement",
				"boundary": "administrative",
				"name": "Hainaut",
				"name:ar": "هينو",
				"name:ca": "Hainaut",
				"name:de": "Hennegau",
				"name:en": "Hainaut",
				"name:es": "Henao",
				"name:fr": "Hainaut",
				"name:hu": "Hainaut",
				"name:ja": "エノー州",
				"name:nl": "Henegouwen",
				"name:pcd": "Hénau",
				"name:ru": "Эно",
				"name:sk": "Hennegavsko",
				"name:vls": "Enegouwn",
				"name:wa": "Hinnot",
				"ref:INS": "50000",
				"ref:nuts": "BE32",
				"ref:nuts:2": "BE32",
				"type": "boundary",
				"wikidata": "Q1129",
				"wikipedia": "fr:Province de Hainaut"
			}
		},
		{
			"type": "area",
			"id": 3601284995,
			"tags": {
				"ISO3166-2": "FR-47",
				"admin_level": "6",
				"border_type": "departement",
				"boundary": "administrative",
				"name": "Lot-et-Garonne",
				"name:ca": "Òlt i Garona",
				"name:es": "Lot y Garona",
				"name:eu": "Lot eta Garona",
				"name:fr": "Lot-et-Garonne",
				"name:oc": "Òlt e Garona",
				"name:ru": "Ло и Гаронна",
				"population": "331271",
				"population:date": "2019",
				"ref": "47",
				"ref:INSEE": "47",
				"ref:nuts": "FRI14",
				"ref:nuts:3": "FRI14",
				"source": "Cadastre; Ortho HR 2019",
				"source:name:oc": "ieo-bdtopoc",
				"source:population": "INSEE 2022",
				"type": "boundary",
				"wikidata": "Q12578",
				"wikipedia": "fr:Lot-et-Garonne"
			}
		},
		{
			"type": "area",
			"id": 3601311816,
			"tags": {
				"ISO3166-2": "BE-WNA",
				"admin_level": "6",
				"border": "state",
				"border_type": "departement",
				"boundary": "administrative",
				"name": "Namur",
				"name:ar": "نامور",
				"name:ca": "Província de Namur",
				"name:de": "Namur",
				"name:en": "Namur",
				"name:eo": "Namuro",
				"name:es": "Namur",
				"name:fr": "Province de Namur",
				"name:hu": "Namur",
				"name:it": "Namur",
				"name:la": "Namurcum",
				"name:lb": "Namouer",
				"name:lt": "Namiūras",
				"name:mk": "Намир",
				"name:nl": "Namen",
				"name:pcd": "Nameur",
				"name:ru": "Намюр",
				"name:sk": "Namursko",
				"name:sr": "Намир",
				"name:uk": "Намюр",
				"name:vls": "Noamn",
				"name:wa": "Nameur",
				"name:zh": "那慕爾",
				"name:zh-Hans": "那慕尔",
				"name:zh-Hant": "那慕爾",
				"ref:INS": "90000",
				"ref:nuts": "BE35",
				"ref:nuts:2": "BE35",
				"type": "boundary",
				"wikidata": "Q1125",
				"wikipedia": "fr:Province de Namur"
			}
		},
		{
			"type": "area",
			"id": 3601412581,
			"tags": {
				"ISO3166-2": "BE-WLX",
				"admin_level": "6",
				"alt_name:nl": "Belgian Luxembourg",
				"border_type": "departement",
				"boundary": "administrative",
				"name": "Luxembourg",
				"name:ca": "Luxemburg",
				"name:de": "Luxemburg",
				"name:en": "Luxembourg",
				"name:es": "Luxemburgo",
				"name:fr": "Luxembourg",
				"name:hu": "Luxembourg",
				"name:lb": "Lëtzebuerg",
				"name:li": "Luxemburg",
				"name:lt": "Liuksemburgas",
				"name:nl": "Luxemburg",
				"name:pcd": "Lussimbourk",
				"name:pl": "Luksemburg",
				"name:ru": "Люксембург",
				"name:vls": "Luxemburg",
				"name:wa": "Lussimbork",
				"name:zh": "盧森堡",
				"name:zh-Hans": "卢森堡",
				"name:zh-Hant": "盧森堡",
				"official_name": "Province de Luxembourg",
				"official_name:de": "Provinz Luxemburg",
				"official_name:en": "Luxembourg Province",
				"official_name:fr": "Province de Luxembourg",
				"official_name:lb": "Provënz Lëtzebuerg",
				"official_name:li": "Provincie Luxemburg",
				"official_name:nl": "Provincie Luxemburg",
				"official_name:vls": "Provinsje Luxemburg",
				"official_name:wa": "Province do Lussimbork",
				"ref:INS": "80000",
				"ref:nuts": "BE34",
				"ref:nuts:2": "BE34",
				"type": "boundary",
				"website": "https://www.province.luxembourg.be",
				"wikidata": "Q1126",
				"wikipedia": "fr:Province de Luxembourg"
			}
		},
		{
			"type": "area",
			"id": 3601450201,
			"tags": {
				"ISO3166-2": "FR-03",
				"admin_level": "6",
				"border_type": "departement",
				"boundary": "administrative",
				"name": "Allier",
				"name:oc": "Alèir",
				"name:ru": "Алье",
				"population": "335975",
				"population:date": "2019",
				"ref": "03",
				"ref:INSEE": "03",
				"ref:nuts": "FRK11",
				"ref:nuts:3": "FRK11",
				"source:name:oc": "ieo-bdtopoc",
				"source:population": "INSEE 2022",
				"type": "boundary",
				"wikidata": "Q3113",
				"wikipedia": "fr:Allier (département)"
			}
		},
		{
			"type": "area",
			"id": 3604850450,
			"tags": {
				"ISO3166-2": "FR-69M",
				"admin_level": "6",
				"alt_name": "Grand Lyon",
				"border_type": "departement",
				"boundary": "administrative",
				"local_authority:FR": "metropole",
				"name": "Métropole de Lyon",
				"name:ru": "Лионская метрополия",
				"old_name": "COURLY",
				"ref": "69M",
				"ref:FR:SIREN": "200046977",
				"ref:INSEE": "69M",
				"start_date": "2015-01-01",
				"type": "boundary",
				"website": "https://www.grandlyon.com/",
				"wikidata": "Q16665897",
				"wikipedia": "fr:Métropole de Lyon"
			}
		},
		{
			"type": "area",
			"id": 3604850451,
			"tags": {
				"ISO3166-2": "FR-69",
				"admin_level": "6",
				"border_type": "departement",
				"boundary": "administrative",
				"description": "territoire de compétence du conseil départemental du Rhône, sur un territoire identique à l'arrondissement de Villefranche-sur-Saône",
				"name": "Rhône",
				"name:br": "Ron",
				"name:es": "Ródano",
				"name:fr": "Rhône",
				"name:lt": "Rona",
				"name:oc": "Ròse",
				"name:ru": "Рона",
				"ref": "69D",
				"ref:INSEE": "69D",
				"source:name:br": "ofis publik ar brezhoneg",
				"source:name:oc": "ieo-bdtopoc",
				"start_date": "2015-01-01",
				"type": "boundary",
				"website": "https://www.rhone.fr/",
				"wikidata": "Q46130",
				"wikipedia": "fr:Rhône (département)"
			}
		}
	]
}
